;FLAVOR:Marlin
;TIME:92
;Filament used: 0.0261172m
;Layer height: 0.2
;MINX:88.652
;MINY:30.117
;MINZ:0.2
;MAXX:122.983
;MAXY:41.875
;MAXZ:0.4
;TARGET_MACHINE.NAME:Creality Ender-3
;POSTPROCESSED
;  [FilamentChange]
;Generated with Cura_SteamEngine 5.6.0
M140 S50
M105
M190 S50
M104 S180
M105
M109 S180
M82 ;absolute extrusion mode
; Ender 3 Custom Start G-code
G92 E0 ; Reset Extruder
G28 ; Home all axes
G1 Z2.0 F3000 ; Move Z Axis up little to prevent scratching of Heat Bed
G1 X0.1 Y20 Z0.3 F5000.0 ; Move to start position
G1 X0.1 Y200.0 Z0.3 F1500.0 E15 ; Draw the first line
G1 X0.4 Y200.0 Z0.3 F5000.0 ; Move to side a little
G1 X0.4 Y20 Z0.3 F1500.0 E30 ; Draw the second line
G92 E0 ; Reset Extruder
G1 Z2.0 F3000 ; Move Z Axis up little to prevent scratching of Heat Bed
G1 X5 Y20 Z0.3 F5000.0 ; Move over to prevent blob squish
G92 E0
G92 E0
G1 F2700 E-7
;LAYER_COUNT:2
;LAYER:0
M107
;MESH:name_inverted.stl
G0 F6000 X89.445 Y36.602 Z0.2
;TYPE:WALL-INNER
G1 F2700 E0
G1 F1500 X90.096 Y36.625 E0.01681
G1 X90.544 Y36.744 E0.02878
G1 X91.528 Y34.454 E0.09311
G1 X91.843 Y33.77 E0.11254
G1 X92.143 Y33.167 E0.12993
G1 X92.437 Y32.632 E0.14568
G1 X92.684 Y32.236 E0.15773
G1 X92.618 Y32.212 E0.15954
G1 X92.425 Y32.045 E0.16613
G1 X92.312 Y31.628 E0.17728
G1 X92.183 Y31.421 E0.18357
G1 X91.964 Y31.296 E0.19008
G1 X91.753 Y31.25 E0.19566
G1 X91.405 Y31.293 E0.20471
G1 X91.009 Y31.425 E0.21548
G1 X91.122 Y31.54 E0.21964
G1 X91.198 Y31.709 E0.22442
G1 X91.199 Y32.39 E0.242
G1 X91.051 Y32.858 E0.25467
G1 X90.94 Y33.163 E0.26305
G1 X89.445 Y36.602 E0.35983
G1 F2700 E-6.64017
G0 F6000 X90.688 Y36.681
G0 X91.613 Y37.332
G0 X92.006 Y37.245
G1 F2700 E0.35983
G1 F1500 X92.192 Y37.237 E0.36463
G1 X92.491 Y37.167 E0.37256
G1 X92.728 Y37.08 E0.37908
G1 X92.995 Y36.945 E0.3868
G1 X93.22 Y36.802 E0.39368
G1 X93.548 Y36.549 E0.40437
G1 X93.876 Y36.226 E0.41625
G1 X94.131 Y35.933 E0.42628
G1 X94.428 Y35.551 E0.43877
G1 X94.74 Y35.068 E0.45361
G1 X94.924 Y34.745 E0.4632
G1 X95.165 Y34.247 E0.47748
G1 X95.365 Y33.7 E0.49251
G1 X95.68 Y33.175 E0.50831
G1 X95.893 Y32.854 E0.51826
G1 X95.654 Y32.706 E0.52551
G1 X95.557 Y32.518 E0.53097
G1 X95.474 Y32.066 E0.54283
G1 X95.374 Y31.755 E0.55127
G1 X95.177 Y31.477 E0.56006
G1 X94.805 Y31.281 E0.57091
G1 X94.544 Y31.28 E0.57765
G1 X94.277 Y31.339 E0.58471
G1 X94.355 Y31.38 E0.58698
G1 X94.601 Y31.703 E0.59746
G1 X94.663 Y32.07 E0.60707
G1 X94.649 Y32.528 E0.61889
G1 X94.583 Y32.937 E0.62959
G1 X94.466 Y33.33 E0.64017
G1 X94.258 Y33.885 E0.65547
G1 X93.939 Y34.576 E0.67511
G1 X93.697 Y35.047 E0.68878
G1 X93.378 Y35.599 E0.70523
G1 X93.122 Y35.991 E0.71732
G1 X92.89 Y36.316 E0.72762
G1 X92.683 Y36.574 E0.73616
G1 X92.449 Y36.831 E0.74513
G1 X92.006 Y37.245 E0.76078
G1 F2700 E-6.23922
G0 F6000 X93.028 Y37.044
G0 X93.886 Y37.734
G0 X95.529 Y37.413
G0 X97.337 Y37.31
G1 F2700 E0.76078
G1 F1500 X97.872 Y37.142 E0.77525
G1 X97.769 Y37.087 E0.77827
G1 X97.561 Y36.754 E0.7884
G1 X97.603 Y36.278 E0.80073
G1 X97.728 Y35.901 E0.81098
G1 X97.848 Y35.598 E0.8194
G1 X98.221 Y34.78 E0.8426
G1 X98.861 Y33.464 E0.88037
G1 X99.196 Y32.722 E0.90138
G1 X99.285 Y32.34 E0.9115
G1 X99.311 Y32.021 E0.91976
G1 X99.279 Y31.81 E0.92527
G1 X99.118 Y31.501 E0.93427
G1 X98.862 Y31.331 E0.9422
G1 X98.588 Y31.267 E0.94946
G1 X98.223 Y31.317 E0.95897
G1 X97.956 Y31.431 E0.96646
G1 X98.141 Y31.563 E0.97233
G1 X98.224 Y31.729 E0.97712
G1 X98.27 Y32.141 E0.98782
G1 X98.133 Y32.62 E1.00068
G1 X97.953 Y33.053 E1.01278
G1 X97.083 Y34.801 E1.06317
G1 X96.888 Y35.21 E1.07487
G1 X96.701 Y35.65 E1.08721
G1 X96.573 Y36.016 E1.09721
G1 X96.517 Y36.287 E1.10436
G1 X96.512 Y36.731 E1.11582
G1 X96.613 Y37.045 E1.12433
G1 X96.734 Y37.204 E1.12949
G1 X96.962 Y37.292 E1.1358
G1 X97.337 Y37.31 E1.14548
G1 F2700 E-5.85452
G0 F6000 X97.338 Y37.31
G0 X98.08 Y37.155
G0 X99.728 Y37.039
G0 X100.83 Y37.246
G1 F2700 E1.14548
G1 F1500 X101.083 Y37.16 E1.15238
G1 X100.948 Y36.994 E1.1579
G1 X100.803 Y36.615 E1.16838
G1 X100.948 Y36.046 E1.18353
G1 X101.057 Y35.725 E1.19228
G1 X101.294 Y35.153 E1.20826
G1 X101.876 Y33.851 E1.24507
G1 X102.926 Y31.276 E1.31685
G1 X101.788 Y31.276 E1.34622
G1 X100.443 Y34.497 E1.43631
G1 X100.008 Y35.357 E1.46118
G1 X99.458 Y36.347 E1.49041
G1 X99.617 Y36.44 E1.49517
G1 X99.817 Y36.982 E1.51008
G1 X100.003 Y37.167 E1.51685
G1 X100.167 Y37.249 E1.52158
G1 X100.568 Y37.291 E1.53199
G1 X100.83 Y37.246 E1.53885
G1 F2700 E-5.46115
G0 F6000 X101.365 Y37.149
G0 X102.682 Y37.197
G0 X102.453 Y37.131
G1 F2700 E1.53885
G1 F1500 X102.955 Y37.027 E1.55208
G1 X103.563 Y36.954 E1.56788
G1 X103.944 Y36.948 E1.57772
G1 X105.274 Y33.709 E1.66809
G1 X105.593 Y33.174 E1.68417
G1 X105.878 Y32.744 E1.69748
G1 X106.161 Y32.37 E1.70959
G1 X106.637 Y31.827 E1.72822
G1 X106.35 Y31.569 E1.73818
G1 X106.332 Y31.276 E1.74576
G1 X105.14 Y31.275 E1.77653
G1 X104.303 Y33.313 E1.83339
G1 X103.942 Y34.101 E1.85576
G1 X103.519 Y34.966 E1.88061
G1 X103.237 Y35.493 E1.89604
G1 X102.885 Y36.094 E1.91402
G1 X102.673 Y36.415 E1.92395
G1 X102.424 Y36.741 E1.93453
G1 X102.261 Y36.905 E1.9405
G1 X102.435 Y37.043 E1.94623
G1 X102.453 Y37.131 E1.94855
G1 F2700 E-5.05145
G0 F6000 X102.75 Y37.155
G0 X103.547 Y37.057
G0 X103.871 Y38.09
G0 X104.667 Y38.185
G0 X105.43 Y37.401
G0 X107.243 Y37.31
G1 F2700 E1.94855
G1 F1500 X107.721 Y37.161 E1.96147
G1 X107.66 Y37.132 E1.96322
G1 X107.511 Y36.926 E1.96978
G1 X107.462 Y36.403 E1.98334
G1 X107.708 Y35.724 E2.00198
G1 X107.927 Y35.219 E2.01618
G1 X108.19 Y34.656 E2.03222
G1 X108.775 Y33.452 E2.06677
G1 X109.075 Y32.801 E2.08527
G1 X109.161 Y32.504 E2.09325
G1 X109.215 Y32.086 E2.10413
G1 X109.201 Y31.835 E2.11062
G1 X109.124 Y31.617 E2.11658
G1 X109.031 Y31.504 E2.12036
G1 X108.716 Y31.298 E2.13008
G1 X108.285 Y31.292 E2.1412
G1 X108.045 Y31.343 E2.14753
G1 X107.842 Y31.45 E2.15346
G1 X107.998 Y31.54 E2.1581
G1 X108.08 Y31.66 E2.16186
G1 X108.191 Y32.029 E2.1718
G1 X108.098 Y32.488 E2.18389
G1 X107.807 Y33.169 E2.203
G1 X106.986 Y34.814 E2.25045
G1 X106.683 Y35.476 E2.26925
G1 X106.551 Y35.806 E2.27842
G1 X106.466 Y36.059 E2.28531
G1 X106.42 Y36.403 E2.29426
G1 X106.438 Y36.781 E2.30403
G1 X106.545 Y37.089 E2.31245
G1 X106.814 Y37.289 E2.3211
G1 X107.243 Y37.31 E2.33218
G1 F2700 E-4.66782
G0 F6000 X108.002 Y37.148
G0 X109.638 Y37.038
G0 X110.483 Y37.291
G1 F2700 E2.33218
G1 F1500 X110.735 Y37.246 E2.33879
G1 X110.933 Y37.18 E2.34418
G1 X110.808 Y37.065 E2.34856
G1 X110.725 Y36.87 E2.35403
G1 X110.796 Y36.276 E2.36947
G1 X110.964 Y35.735 E2.38409
G1 X111.177 Y35.211 E2.39869
G1 X111.684 Y34.1 E2.43021
G1 X112.833 Y31.276 E2.5089
G1 X111.699 Y31.276 E2.53817
G1 X110.35 Y34.503 E2.62844
G1 X109.919 Y35.354 E2.65306
G1 X109.649 Y35.856 E2.66777
G1 X109.346 Y36.353 E2.6828
G1 X109.456 Y36.361 E2.68564
G1 X109.561 Y36.528 E2.69074
G1 X109.726 Y36.982 E2.7032
G1 X109.915 Y37.169 E2.71007
G1 X110.076 Y37.249 E2.71471
G1 X110.483 Y37.291 E2.72527
G1 F2700 E-4.27473
G0 F6000 X111.225 Y37.176
G0 X112.596 Y37.192
G0 X112.369 Y37.127
G1 F2700 E2.72527
G1 F1500 X112.676 Y37.059 E2.73338
G1 X113.014 Y37.001 E2.74223
G1 X113.543 Y36.943 E2.75597
G1 X113.853 Y36.951 E2.76397
G1 X116.182 Y31.275 E2.92232
G1 X115.05 Y31.275 E2.95154
G1 X114.214 Y33.313 E3.00839
G1 X113.852 Y34.1 E3.03075
G1 X113.454 Y34.916 E3.05418
G1 X113.232 Y35.338 E3.06649
G1 X112.887 Y35.944 E3.08449
G1 X112.637 Y36.338 E3.09653
G1 X112.204 Y36.913 E3.11511
G1 X112.35 Y37.036 E3.12004
G1 X112.369 Y37.127 E3.12244
G0 F6000 X112.202 Y37.45
;TYPE:WALL-OUTER
G1 F1500 X112.723 Y37.335 E3.13621
G1 X113.063 Y37.278 E3.1451
G1 X113.574 Y37.221 E3.15837
G1 X114.038 Y37.24 E3.17036
G1 X116.599 Y30.995 E3.34457
G1 X114.863 Y30.995 E3.38938
G1 X113.959 Y33.196 E3.45079
G1 X113.6 Y33.977 E3.47297
G1 X113.206 Y34.785 E3.49618
G1 X112.988 Y35.2 E3.50827
G1 X112.638 Y35.814 E3.52652
G1 X112.401 Y36.186 E3.5379
G1 X112.128 Y36.551 E3.54966
G1 X111.935 Y36.756 E3.55693
G1 F1399.4 X111.908 Y36.798 E3.55831
G1 F1071.4 X111.685 Y37.005 E3.56931
G1 F1100.9 X111.909 Y37.031 E3.57724
G1 F1450.2 X112.159 Y37.24 E3.58594
G1 F1500 X112.202 Y37.45 E3.59147
G0 F6000 X111.438 Y37.233
G1 F1203 X111.641 Y37.037 E3.60055
G1 F1206 X111.139 Y37.005 E3.6167
G1 F1387.3 X111.046 Y36.917 E3.62027
G1 F1500 X111.016 Y36.823 E3.62282
G1 X111.072 Y36.324 E3.63578
G1 X111.224 Y35.84 E3.64887
G1 X111.432 Y35.328 E3.66313
G1 X111.955 Y34.18 E3.69569
G1 X111.949 Y34.172 E3.69595
G1 X113.251 Y30.996 E3.78454
G1 X111.513 Y30.996 E3.8294
G1 X110.09 Y34.394 E3.92448
G1 X109.674 Y35.219 E3.94833
G1 X109.407 Y35.714 E3.96285
G1 F1340.8 X108.953 Y36.506 E3.98921
G1 X109.273 Y36.558 E3.99857
G1 F1500 X109.485 Y37.137 E4.01448
G1 X109.75 Y37.4 E4.02412
G1 X109.983 Y37.515 E4.03082
G1 X110.235 Y37.57 E4.03748
G1 X110.507 Y37.571 E4.0445
G1 X110.804 Y37.519 E4.05228
G1 X111.103 Y37.419 E4.06042
G1 F1387.3 X111.438 Y37.233 E4.07111
G1 F2700 E-2.92889
G0 F6000 X111.149 Y37.199
G0 X110.28 Y37.169
G0 X109.635 Y36.873
G0 X108.941 Y36.526
G1 F2700 E4.07111
G1 F1032.3 X108.614 Y36.866 E4.08881
G0 F6000 X107.78 Y36.805
G1 F1500 X107.751 Y36.436 E4.09836
G1 X107.976 Y35.809 E4.11555
G1 X108.18 Y35.338 E4.1288
G1 X109.03 Y33.569 E4.17945
G1 X109.338 Y32.899 E4.19849
G1 X109.434 Y32.568 E4.20738
G1 X109.495 Y32.088 E4.21987
G1 X109.478 Y31.78 E4.22783
G1 X109.372 Y31.477 E4.23612
G1 X109.22 Y31.293 E4.24228
G1 X108.876 Y31.067 E4.2529
G1 X108.703 Y31.017 E4.25755
G1 X108.258 Y31.012 E4.26903
G1 X107.95 Y31.077 E4.27716
G1 X107.626 Y31.247 E4.2866
G1 F1359.8 X107.342 Y31.456 E4.29664
G1 F1027.8 X107.171 Y31.685 E4.30741
G1 X107.423 Y31.629 E4.31713
G1 F1359.8 X107.697 Y31.675 E4.32504
G1 F1500 X107.794 Y31.732 E4.32794
G1 X107.904 Y32.005 E4.33554
G1 X107.828 Y32.415 E4.3463
G1 X107.545 Y33.066 E4.36462
G1 X106.731 Y34.697 E4.41167
G1 X106.43 Y35.354 E4.43032
G1 X106.293 Y35.694 E4.43979
G1 X106.192 Y35.995 E4.44798
G1 X106.138 Y36.391 E4.45829
G1 X106.16 Y36.823 E4.46946
G1 X106.304 Y37.236 E4.48075
G1 X106.418 Y37.379 E4.48547
G1 X106.731 Y37.567 E4.49489
G1 X107.158 Y37.586 E4.50592
G1 X107.444 Y37.541 E4.5134
G1 X107.751 Y37.446 E4.52169
G1 F1391.3 X108.221 Y37.228 E4.53611
G1 F1209.1 X108.551 Y36.938 E4.55017
G1 F1093.4 X108.614 Y36.866 E4.55356
G1 F1137.4 X108.185 Y37.02 E4.56908
G1 F1355.9 X107.845 Y36.922 E4.57918
G1 F1500 X107.78 Y36.805 E4.58263
G1 F2700 E-2.41737
G0 F6000 X107.589 Y36.956
G0 X107.137 Y37.183
G0 X106.337 Y36.794
G0 X104.438 Y36.014
G0 X102.287 Y37.451
G1 F2700 E4.58263
G1 F1500 X103.012 Y37.301 E4.60174
G1 X103.571 Y37.234 E4.61627
G1 X103.899 Y37.225 E4.62474
G1 X104.122 Y37.251 E4.63054
G1 X105.529 Y33.824 E4.72615
G1 X105.827 Y33.329 E4.74106
G1 X106.119 Y32.888 E4.75471
G1 X106.374 Y32.551 E4.76562
G1 X106.783 Y32.081 E4.7817
G1 F1472.4 X106.885 Y31.989 E4.78531
G1 F1253.3 X107.097 Y31.725 E4.79577
G1 X106.869 Y31.651 E4.80318
G1 F1459 X106.596 Y31.455 E4.8121
G1 F1486.1 X106.583 Y31.255 E4.81732
G1 F1500 X106.69 Y30.995 E4.82457
G1 X104.953 Y30.995 E4.86941
G1 X104.049 Y33.196 E4.93082
G1 X103.69 Y33.978 E4.95303
G1 X103.271 Y34.834 E4.97762
G1 X102.986 Y35.368 E4.99325
G1 X102.637 Y35.961 E5.01101
G1 X102.432 Y36.272 E5.02062
G1 X102.233 Y36.534 E5.02911
G1 F1116.3 X101.771 Y37.001 E5.0519
G1 F1054.9 X101.942 Y37.01 E5.05818
G1 F1391.3 X102.245 Y37.249 E5.06892
G1 F1500 X102.287 Y37.451 E5.07424
G0 F6000 X101.541 Y37.24
G1 F1036.7 X101.715 Y37.039 E5.08417
G1 F969.7 X101.568 Y37.041 E5.09004
G1 F1250 X101.222 Y36.933 E5.10127
G1 F1500 X101.099 Y36.587 E5.11074
G1 X101.209 Y36.15 E5.12237
G1 X101.316 Y35.833 E5.13101
G1 X101.551 Y35.265 E5.14688
G1 X102.108 Y33.998 E5.1826
G1 X102.119 Y33.995 E5.18289
G1 X103.343 Y30.996 E5.26649
G1 X101.602 Y30.996 E5.31143
G1 X100.18 Y34.394 E5.4065
G1 X99.763 Y35.221 E5.4304
G1 X99.342 Y35.98 E5.45281
G1 F1162.2 X99.032 Y36.528 E5.47378
G1 F1059.6 X99.213 Y36.491 E5.48053
G1 F1333.3 X99.378 Y36.6 E5.48627
G1 F1500 X99.575 Y37.137 E5.50103
G1 X99.838 Y37.398 E5.5106
G1 X100.074 Y37.515 E5.5174
G1 X100.326 Y37.57 E5.52405
G1 X100.591 Y37.571 E5.53089
G1 X100.899 Y37.518 E5.53896
G1 X101.194 Y37.418 E5.547
G1 F1363.6 X101.541 Y37.24 E5.55807
G1 F2700 E-1.44193
G0 F6000 X101.286 Y37.165
G0 X100.206 Y37.134
G0 X99.948 Y36.911
G0 X99.032 Y36.528
G1 F2700 E5.55807
G1 F1008.4 X98.731 Y36.853 E5.57508
G0 F6000 X97.847 Y36.724
G1 F1500 X97.874 Y36.348 E5.58481
G1 X97.988 Y36.004 E5.59416
G1 X98.103 Y35.714 E5.60221
G1 X98.473 Y34.903 E5.62522
G1 X99.116 Y33.58 E5.66319
G1 X99.463 Y32.812 E5.68494
G1 X99.563 Y32.383 E5.69631
G1 X99.592 Y32.011 E5.70594
G1 X99.551 Y31.733 E5.71319
G1 X99.424 Y31.434 E5.72157
G1 X99.308 Y31.291 E5.72633
G1 X98.974 Y31.07 E5.73666
G1 X98.602 Y30.983 E5.74652
G1 X98.147 Y31.044 E5.75837
G1 X97.721 Y31.227 E5.77034
G1 F1066.7 X97.395 Y31.585 E5.78791
G1 F935.7 X97.572 Y31.591 E5.79524
G1 F1253.3 X97.826 Y31.667 E5.80343
G1 F1500 X97.948 Y31.754 E5.8073
G1 X97.988 Y32.097 E5.81621
G1 X97.874 Y32.512 E5.82732
G1 X97.695 Y32.941 E5.83932
G1 X97.482 Y33.383 E5.85198
G1 X96.83 Y34.68 E5.88945
G1 X96.651 Y35.055 E5.90017
G1 X96.439 Y35.549 E5.91405
G1 X96.302 Y35.942 E5.92479
G1 X96.237 Y36.258 E5.93311
G1 X96.234 Y36.593 E5.94176
G1 X96.264 Y36.876 E5.94911
G1 X96.36 Y37.174 E5.95719
G1 X96.551 Y37.434 E5.96551
G1 X96.904 Y37.57 E5.97528
G1 X97.248 Y37.586 E5.98416
G1 X97.534 Y37.541 E5.99164
G1 X97.842 Y37.446 E5.99996
G1 F1403.5 X98.313 Y37.228 E6.01427
G1 F1240.3 X98.655 Y36.933 E6.02837
G1 F1121.5 X98.731 Y36.853 E6.03218
G1 F1240.3 X98.383 Y36.988 E6.04383
G1 F1481.5 X98.139 Y36.996 E6.05021
G1 F1500 X97.991 Y36.918 E6.05453
G1 X97.847 Y36.724 E6.06076
G1 F2700 E-0.93924
G0 F6000 X97.589 Y36.707
G0 X97.593 Y37.089
G0 X97.226 Y37.183
G0 X96.805 Y37.1
G0 X96.633 Y36.71
G0 X96.679 Y36.174
G0 X97.642 Y33.463
G0 X96.391 Y32.611
G1 F2700 E6.06076
G1 F1073.8 X96.54 Y32.411 E6.06976
G1 F1021.3 X96.917 Y31.984 E6.09135
G1 F954.3 X97.11 Y31.799 E6.1022
G1 F877.5 X97.395 Y31.585 E6.11792
G1 F2700 E-0.88208
G0 F6000 X97.743 Y31.458
G0 X95.571 Y32.035
G0 X93.549 Y31.583
G1 F2700 E6.11792
G1 F993.8 X93.347 Y31.789 E6.12916
G1 F1059.6 X93.173 Y31.997 E6.13907
G1 F2700 E-0.86093
G0 F6000 X93.107 Y30.744
G0 X92.891 Y30.507
G0 X92.38 Y30.215
G0 X91.934 Y30.117
G0 X91.191 Y30.165
G0 X90.474 Y30.407
G0 X89.644 Y30.975
G0 X90.05 Y31.821
G1 F2700 E6.13907
G1 F1103.4 X89.597 Y32.289 E6.16192
G1 F1182.3 X89.242 Y32.777 E6.18168
G1 F1212.1 X88.929 Y33.282 E6.20066
G1 F1194 X88.652 Y33.767 E6.21877
G1 F2700 E-0.78123
G0 F6000 X90.263 Y34.468
G0 X90.811 Y37.195
G1 F2700 E6.21877
G1 F1407.6 X90.742 Y37.099 E6.22202
G1 F1445.8 X90.747 Y36.996 E6.22478
G1 F1495.3 X91.783 Y34.571 E6.29305
G1 F1500 X92.093 Y33.895 E6.31225
G1 X92.389 Y33.301 E6.32938
G1 X92.676 Y32.778 E6.34477
G1 F1363.6 X93.161 Y32.001 E6.37078
G1 F1280 X93.047 Y32.045 E6.37447
G1 F1399.4 X92.738 Y31.959 E6.38335
G1 F1500 X92.637 Y31.872 E6.38679
G1 X92.581 Y31.539 E6.3955
G1 X92.461 Y31.305 E6.40229
G1 X92.355 Y31.197 E6.4062
G1 X92.066 Y31.032 E6.41479
G1 X91.766 Y30.965 E6.42272
G1 X91.353 Y31.017 E6.43346
G1 X91.099 Y31.083 E6.44024
G1 X90.86 Y31.184 E6.44693
G1 X90.617 Y31.324 E6.45417
G1 F1486.1 X90.305 Y31.545 E6.46413
G1 F1333.3 X90.074 Y31.795 E6.47402
G1 X90.401 Y31.702 E6.48389
G1 F1476.9 X90.693 Y31.597 E6.49202
G1 F1495.3 X90.83 Y31.634 E6.4957
G1 F1500 X90.918 Y31.8 E6.50054
G1 X90.919 Y32.344 E6.51459
G1 X90.788 Y32.762 E6.52589
G1 X90.672 Y33.077 E6.53456
G1 X88.973 Y36.985 E6.64454
G1 X89.351 Y36.913 E6.65447
G1 X89.659 Y36.889 E6.66244
G1 X90.078 Y36.909 E6.67327
G1 X90.429 Y37.004 E6.68266
G1 F1454.5 X90.811 Y37.195 E6.69402
G0 F6000 X91.007 Y37.32
G1 F1441.4 X91.345 Y37.437 E6.70363
G1 F1500 X91.622 Y37.503 E6.71098
G1 X91.882 Y37.53 E6.71773
G1 X92.224 Y37.517 E6.72656
G1 X92.572 Y37.436 E6.73578
G1 X92.84 Y37.337 E6.74316
G1 X93.123 Y37.195 E6.75133
G1 X93.381 Y37.031 E6.75922
G1 X93.732 Y36.76 E6.77066
G1 X94.07 Y36.429 E6.78287
G1 X94.34 Y36.121 E6.79345
G1 X94.657 Y35.713 E6.80678
G1 X94.983 Y35.207 E6.82232
G1 X95.172 Y34.876 E6.83215
G1 X95.424 Y34.356 E6.84707
G1 X95.613 Y33.837 E6.86132
G1 X95.914 Y33.33 E6.87654
G1 F1253.3 X96.391 Y32.611 E6.9032
G1 F1194 X96.185 Y32.649 E6.90999
G1 F1415.9 X95.977 Y32.594 E6.91587
G1 F1500 X95.838 Y32.508 E6.92009
G1 X95.747 Y31.997 E6.93349
G1 X95.627 Y31.628 E6.9435
G1 X95.376 Y31.273 E6.95472
G1 X95.125 Y31.107 E6.96249
G1 X94.859 Y31.001 E6.96988
G1 X94.522 Y31 E6.97858
G1 X94.093 Y31.105 E6.98998
G1 X93.893 Y31.213 E6.99584
G1 F1363.6 X93.709 Y31.376 E7.00282
G1 F1076.2 X93.549 Y31.583 E7.01223
G1 X93.792 Y31.511 E7.02135
G1 F1304.3 X94.163 Y31.573 E7.03251
G1 F1428.6 X94.343 Y31.854 E7.04156
G1 F1500 X94.386 Y32.146 E7.04918
G1 X94.37 Y32.506 E7.05848
G1 X94.32 Y32.833 E7.06701
G1 X94.204 Y33.231 E7.07771
G1 X93.982 Y33.818 E7.09391
G1 X93.689 Y34.448 E7.11184
G1 X93.454 Y34.907 E7.12515
G1 X93.129 Y35.469 E7.14191
G1 X92.893 Y35.829 E7.15302
G1 X92.671 Y36.141 E7.1629
G1 X92.483 Y36.377 E7.17069
G1 X92.255 Y36.628 E7.17944
G1 X91.999 Y36.873 E7.18859
G1 X91.75 Y37.062 E7.19666
G1 X91.398 Y37.264 E7.20713
G1 F1450.2 X90.889 Y37.26 E7.22072
G1 F1391.3 X91.007 Y37.32 E7.2244
G0 F6000 X90.575 Y36.817
G0 X89.653 Y36.47
G0 X89.693 Y36.186
G0 X89.936 Y36.292
;TYPE:SKIN
G1 F1170.7 X91.236 Y33.315 E7.33183
G1 F1132.1 X91.373 Y32.977 E7.3443
G1 F1008.4 X91.586 Y32.388 E7.36835
G1 F917.8 X91.581 Y31.663 E7.39893
G1 F910.8 X91.738 Y31.644 E7.40565
G1 X91.934 Y31.726 E7.41468
G1 X92.084 Y32.239 E7.4374
G1 F946.7 X92.157 Y32.317 E7.44177
G1 F1081.1 X91.231 Y34.322 E7.52086
G1 F1188.1 X90.356 Y36.354 E7.59295
G1 F1179.4 X89.936 Y36.292 E7.60689
G1 F2700 E0.60689
G0 F6000 X89.693 Y36.186
G0 X89.653 Y36.47
G0 X90.472 Y36.588
G0 X92.232 Y33.216
G0 X94.494 Y32.883
G0 X95.028 Y31.929
G1 F2700 E7.60689
G1 F912.5 X95.062 Y32.059 E7.61259
G1 F784.3 X95.107 Y32.651 E7.64189
G1 F611.5 X95.152 Y32.956 E7.66141
G0 F6000 X94.933 Y33.476
G1 F660.2 X94.72 Y34.042 E7.69687
G1 F664.8 X94.49 Y34.531 E7.72834
G1 F681.8 X94.341 Y34.819 E7.74675
G1 F722.9 X94.086 Y35.262 E7.77413
G1 F790.8 X93.817 Y35.665 E7.79785
G1 F882.4 X93.588 Y35.975 E7.81476
G1 F2700 E0.81476
G0 F6000 X93.812 Y36.203
G0 X95.458 Y33.742
G0 X97.642 Y33.463
G0 X98.787 Y31.995
G1 F2700 E7.81476
G1 F609.9 X98.781 Y32.23 E7.82968
G1 F621 X98.673 Y32.644 E7.85636
G1 F632.4 X98.41 Y33.254 E7.89702
G1 F639.1 X97.768 Y34.564 E7.98539
G1 F622.6 X97.362 Y35.418 E8.04419
G1 F606.8 X97.235 Y35.728 E8.06557
G0 F6000 X96.81 Y35.547
G0 X96.638 Y36.3
G0 X96.633 Y36.71
G0 X96.773 Y37.026
G0 X97.02 Y37.235
G0 X97.032 Y36.967
G1 F1179.4 X96.937 Y36.929 E8.06893
G1 X96.839 Y36.678 E8.07777
G1 F1167.9 X96.848 Y36.327 E8.08941
G1 F1170.7 X96.914 Y36.035 E8.09931
G1 F798.7 X97.235 Y35.728 E8.12084
G1 X97.298 Y36.165 E8.14224
G1 F1179.4 X97.275 Y36.251 E8.14517
G1 X97.239 Y36.788 E8.16283
G1 X97.305 Y36.954 E8.1687
G1 X97.032 Y36.967 E8.17767
G1 F2700 E1.17767
G0 F6000 X97.02 Y37.235
G0 X98.08 Y37.155
G0 X99.728 Y37.039
G0 X100.306 Y36.883
G1 F2700 E8.17767
G1 F933.9 X100.142 Y36.758 E8.18622
G1 X99.95 Y36.239 E8.20916
G1 X100.388 Y35.464 E8.24606
G1 F1021.3 X100.354 Y35.433 E8.24781
G1 F1162.2 X100.737 Y34.634 E8.27732
G1 F1197 X102.006 Y31.602 E8.38363
G1 F1188.1 X102.44 Y31.602 E8.39777
G1 F1176.5 X101.583 Y33.694 E8.47217
G1 F1173.6 X101.544 Y33.766 E8.47487
G1 F1191.1 X101.111 Y34.777 E8.51062
G1 F1162.2 X100.739 Y35.609 E8.54098
G1 F1021.3 X100.695 Y35.6 E8.54268
G1 F933.9 X100.583 Y35.936 E8.55736
G1 X100.467 Y36.381 E8.57643
G1 X100.441 Y36.722 E8.5906
G1 X100.507 Y36.904 E8.59863
G1 X100.306 Y36.883 E8.60701
G1 F2700 E1.60701
G0 F6000 X100.273 Y37.202
G0 X101.365 Y37.149
G0 X102.682 Y37.197
G0 X102.99 Y36.635
G1 F2700 E8.60701
G1 F921.3 X103.269 Y36.2 E8.62873
G1 F960 X103.558 Y35.667 E8.65318
G1 F1034.5 X103.83 Y35.125 E8.67587
G1 F1108.5 X104.24 Y34.251 E8.70959
G1 F1111.1 X104.892 Y32.799 E8.76505
G1 F1006.3 X105.426 Y31.682 E8.81268
G1 F897.2 X105.973 Y31.682 E8.83628
G1 F849.6 X106.068 Y31.855 E8.84528
G1 X105.828 Y32.136 E8.86212
G1 F893.9 X105.593 Y32.49 E8.88052
G1 F1000 X105.297 Y32.988 E8.90295
G1 F1129.4 X104.986 Y33.558 E8.92521
G1 X104.241 Y35.302 E8.99021
G1 F989.7 X103.691 Y36.55 E9.04356
G1 F921.3 X102.99 Y36.635 E9.07324
G1 F2700 E2.07324
G0 F6000 X103.029 Y36.958
G0 X103.859 Y36.818
G0 X105.374 Y33.733
G0 X107.707 Y33.145
G0 X108.696 Y31.957
G1 F2700 E9.07324
G1 F623.4 X108.701 Y32.084 E9.08113
G1 X108.623 Y32.555 E9.11078
G1 F633.2 X108.261 Y33.372 E9.16541
G1 F632.4 X107.457 Y35.018 E9.27756
G1 F615.4 X107.248 Y35.485 E9.30974
G1 F606.8 X106.99 Y36.131 E9.35412
G1 F600.8 X106.95 Y36.428 E9.37344
G1 F597 X106.963 Y36.734 E9.3933
G1 F2700 E2.3933
G0 F6000 X106.551 Y36.953
G0 X106.851 Y37.169
G0 X107.137 Y37.183
G0 X107.468 Y37.102
G0 X107.434 Y36.548
G0 X107.81 Y35.74
G0 X109.673 Y35.593
G0 X110.865 Y34.634
G1 F2700 E9.3933
G1 F802.7 X110.837 Y34.19 E9.41475
G1 F1194 X111.916 Y31.601 E9.5057
G1 X112.349 Y31.601 E9.51974
G1 F1185.2 X111.369 Y33.985 E9.60393
G1 F1182.3 X111.207 Y34.351 E9.61704
G1 F802.7 X110.865 Y34.634 E9.63845
G0 F6000 X111.286 Y34.825
G0 X110.685 Y37.119
G0 X110.03 Y37.148
G0 X110.134 Y36.844
G1 F928.4 X110.057 Y36.77 E9.64291
G1 F956.2 X109.871 Y36.26 E9.66489
G1 F1086 X110.653 Y34.626 E9.72946
G1 F1206 X111.013 Y34.788 E9.74214
G1 F1156.6 X110.627 Y35.662 E9.77412
G1 F1019.1 X110.414 Y36.258 E9.79816
G1 F935.7 X110.356 Y36.735 E9.81804
G1 F928.4 X110.365 Y36.901 E9.82498
G1 X110.134 Y36.844 E9.8349
G1 F2700 E2.8349
G0 F6000 X110.03 Y37.148
G0 X111.153 Y37.197
G0 X112.596 Y37.192
G0 X112.909 Y36.63
G1 F2700 E9.8349
G1 F923.1 X113.2 Y36.169 E9.85776
G1 F965.8 X113.505 Y35.599 E9.88368
G1 F1043.5 X113.764 Y35.073 E9.90543
G1 F1111.1 X114.15 Y34.251 E9.93707
G1 F1176.5 X114.511 Y33.441 E9.96625
G1 F1206 X115.269 Y31.598 E10.03022
G1 X115.698 Y31.598 E10.044
G1 X114.882 Y33.586 E10.11298
G1 F1100.9 X113.938 Y35.789 E10.19726
G1 F967.7 X113.602 Y36.549 E10.23051
G1 F923.1 X112.909 Y36.63 E10.25977
G1 F2700 E3.25977
G0 F6000 X112.961 Y36.95
G0 X113.582 Y37.04
G0 X114.696 Y38.59
G0 X115.212 Y41.281
;TYPE:WALL-INNER
G1 F2700 E10.25977
G1 F1500 X115.085 Y40.698 E10.27517
G1 X115.166 Y40.152 E10.28941
G1 X115.238 Y39.884 E10.29658
G1 X115.39 Y39.484 E10.30762
G1 X115.72 Y38.912 E10.32467
G1 X116.082 Y38.453 E10.33975
G1 X115.876 Y38.318 E10.34611
G1 X115.642 Y38.254 E10.35237
G1 X115.388 Y38.267 E10.35894
G1 X115.113 Y38.372 E10.36653
G1 X114.9 Y38.522 E10.37326
G1 X114.647 Y38.84 E10.38375
G1 X114.457 Y39.213 E10.39455
G1 X114.357 Y39.608 E10.40507
G1 X114.356 Y39.937 E10.41356
G1 X114.428 Y40.361 E10.42466
G1 X114.62 Y40.735 E10.43551
G1 X114.774 Y40.936 E10.44204
G1 X115.045 Y41.18 E10.45146
G1 X115.212 Y41.281 E10.45649
G1 F2700 E3.45649
G0 F6000 X115.497 Y41.51
G0 X117.057 Y41.677
G0 X117.345 Y41.555
G1 F2700 E10.45649
G1 F1500 X117.728 Y41.481 E10.46656
G1 X118.149 Y41.335 E10.47806
G1 X118.51 Y41.119 E10.48892
G1 X118.725 Y40.937 E10.49619
G1 X119.01 Y40.596 E10.50766
G1 X119.148 Y40.362 E10.51467
G1 X119.25 Y40.102 E10.52188
G1 X119.322 Y39.802 E10.52984
G1 X119.343 Y39.547 E10.53645
G1 X119.317 Y39.193 E10.54561
G1 X119.209 Y38.841 E10.55511
G1 X119.096 Y38.603 E10.56191
G1 X118.949 Y38.39 E10.56859
G1 X118.739 Y38.173 E10.57638
G1 F1227.6 X118.422 Y37.99 E10.58793
G1 F1004.2 X118.33 Y37.66 E10.60114
G1 F971.7 X118.393 Y37.313 E10.61519
G1 X117.666 Y37.479 E10.6449
G1 X117.877 Y37.768 E10.65916
G1 F1039 X118.067 Y38.205 E10.67691
G1 F1280 X118.208 Y38.866 E10.69736
G1 F1500 X118.246 Y39.203 E10.70611
G1 X118.249 Y39.724 E10.71956
G1 X118.1 Y40.329 E10.73564
G1 X117.878 Y40.889 E10.75119
G1 X117.567 Y41.341 E10.76535
G1 X117.345 Y41.555 E10.7733
G1 F2700 E3.7733
G0 F6000 X117.814 Y40.84
G0 X118.028 Y40.289
G0 X118.327 Y38.769
G0 X118.193 Y37.97
G0 X118.597 Y38.007
G0 X118.796 Y37.048
G0 X119.013 Y36.982
G1 F2700 E10.7733
G1 F1500 X119.422 Y36.946 E10.7839
G1 X119.711 Y36.897 E10.79147
G1 X119.985 Y36.831 E10.79874
G1 X120.264 Y36.742 E10.8063
G1 X120.53 Y36.635 E10.8137
G1 X120.798 Y36.502 E10.82142
G1 X121.118 Y36.315 E10.83099
G1 X121.439 Y36.073 E10.84136
G1 X121.664 Y35.871 E10.84917
G1 X121.862 Y35.669 E10.85647
G1 X122.126 Y35.351 E10.86714
G1 X122.33 Y35.012 E10.87735
G1 X122.452 Y34.75 E10.88481
G1 X122.573 Y34.404 E10.89427
G1 X122.647 Y34.101 E10.90232
G1 X122.69 Y33.78 E10.91068
G1 X122.702 Y33.389 E10.92077
G1 X122.649 Y33.019 E10.93042
G1 X122.553 Y32.676 E10.93961
G1 X122.361 Y32.305 E10.95039
G1 X122.093 Y31.978 E10.96131
G1 X121.809 Y31.752 E10.97067
G1 X121.55 Y31.597 E10.97846
G1 X121.234 Y31.457 E10.98738
G1 X120.884 Y31.348 E10.99685
G1 X120.473 Y31.279 E11.0076
G1 X120.189 Y31.254 E11.01496
G1 F1486.1 X119.685 Y31.278 E11.02811
G1 F1476.9 X120.121 Y31.388 E11.03989
G1 F1495.3 X120.603 Y31.71 E11.0549
G1 F1500 X121.016 Y32.154 E11.07055
G1 X121.243 Y32.647 E11.08456
G1 X121.355 Y33.108 E11.0968
G1 X121.386 Y33.519 E11.10744
G1 X121.36 Y33.918 E11.11776
G1 X121.287 Y34.277 E11.12722
G1 X121.135 Y34.745 E11.13992
G1 X120.986 Y35.091 E11.14964
G1 X120.766 Y35.508 E11.16181
G1 X120.468 Y35.903 E11.17458
G1 X120.228 Y36.166 E11.18377
G1 X120.001 Y36.375 E11.19173
G1 X119.707 Y36.597 E11.20124
G1 X119.376 Y36.804 E11.21132
G1 X119.013 Y36.982 E11.22175
G1 F2700 E4.22175
G0 F6000 X118.598 Y37.023
G0 X118.287 Y36.04
G0 X117.263 Y33.065
G0 X116.682 Y32.367
;TYPE:WALL-OUTER
G1 F2700 E11.22175
G1 F960 X116.85 Y32.215 E11.23089
G1 F882.4 X117.237 Y31.945 E11.25159
G1 F804 X117.586 Y31.754 E11.27075
G1 F765.6 X117.703 Y31.701 E11.27725
G1 F2700 E4.27725
G0 F6000 X118.86 Y31.319
G0 X118.516 Y31.4
G0 X118.544 Y32.458
G0 X115.94 Y36.432
G0 X115.654 Y37.113
G0 X115.872 Y41.692
G1 F2700 E11.27725
G1 F879.1 X116.239 Y41.771 E11.29378
G1 F900.6 X116.307 Y41.775 E11.29671
G1 F1106 X116.679 Y41.875 E11.31019
G1 F1472.4 X117.119 Y41.862 E11.32177
G1 F1500 X117.439 Y41.825 E11.33008
G1 X117.802 Y41.752 E11.33964
G1 X118.14 Y41.635 E11.34887
G1 X118.382 Y41.521 E11.35577
G1 X118.674 Y41.347 E11.36455
G1 X118.918 Y41.14 E11.3728
G1 X119.094 Y40.952 E11.37945
G1 X119.244 Y40.751 E11.38592
G1 X119.401 Y40.486 E11.39387
G1 X119.518 Y40.186 E11.40218
G1 X119.599 Y39.846 E11.41121
G1 X119.624 Y39.548 E11.41892
G1 X119.594 Y39.141 E11.42946
G1 X119.47 Y38.74 E11.44029
G1 X119.339 Y38.463 E11.4482
G1 X119.167 Y38.213 E11.45603
G1 X118.9 Y37.936 E11.46596
G1 X118.726 Y37.826 E11.47127
G1 X118.695 Y37.697 E11.4747
G1 F1375.4 X118.776 Y37.263 E11.48713
G1 F1142.9 X118.916 Y37.2 E11.49233
G1 F1227.6 X119.08 Y37.258 E11.49781
G1 F1500 X119.467 Y37.222 E11.50784
G1 X119.776 Y37.17 E11.51593
G1 X120.068 Y37.098 E11.52369
G1 X120.349 Y37.01 E11.53129
G1 X120.635 Y36.896 E11.53924
G1 X120.949 Y36.739 E11.5483
G1 X121.274 Y36.549 E11.55802
G1 X121.603 Y36.301 E11.56865
G1 X121.824 Y36.106 E11.57626
G1 X122.071 Y35.856 E11.58533
G1 X122.356 Y35.513 E11.59684
G1 X122.578 Y35.143 E11.60797
G1 X122.712 Y34.856 E11.61615
G1 X122.842 Y34.484 E11.62632
G1 X122.923 Y34.153 E11.63512
G1 X122.97 Y33.803 E11.64423
G1 X122.983 Y33.373 E11.65533
G1 X122.923 Y32.961 E11.66608
G1 X122.814 Y32.573 E11.67648
G1 X122.596 Y32.15 E11.68876
G1 X122.29 Y31.777 E11.70122
G1 X121.968 Y31.521 E11.71183
G1 X121.68 Y31.348 E11.7205
G1 X121.333 Y31.194 E11.7303
G1 X120.95 Y31.075 E11.74065
G1 X120.497 Y30.999 E11.75251
G1 X120.202 Y30.974 E11.76015
G1 F1486.1 X119.825 Y30.982 E11.76997
G1 F1209.1 X119.517 Y31.07 E11.78023
G1 F1041.2 X119.346 Y31.075 E11.78659
G1 F1093.4 X118.936 Y31.129 E11.80123
G1 F1182.3 X118.593 Y31.218 E11.81284
G1 F1269.8 X118.047 Y31.397 E11.83036
G1 F958.1 X117.703 Y31.701 E11.84891
G1 F900.6 X117.994 Y31.671 E11.86148
G1 F1237.1 X118.106 Y31.671 E11.86499
G1 F1355.9 X118.354 Y31.592 E11.87242
G1 F1263.2 X118.771 Y31.496 E11.88553
G1 F1159.4 X119.096 Y31.457 E11.89646
G1 F1071.4 X119.485 Y31.453 E11.91052
G1 F1209.1 X119.773 Y31.591 E11.92075
G1 F1486.1 X120.049 Y31.671 E11.92823
G1 F1500 X120.402 Y31.913 E11.93928
G1 X120.791 Y32.328 E11.95396
G1 X120.981 Y32.756 E11.96605
G1 X121.071 Y33.107 E11.9754
G1 X121.106 Y33.511 E11.98587
G1 X121.081 Y33.891 E11.99569
G1 X121.026 Y34.17 E12.00303
G1 X120.884 Y34.616 E12.01511
G1 X120.727 Y34.984 E12.02544
G1 X120.533 Y35.351 E12.03616
G1 X120.261 Y35.715 E12.04788
G1 X120.038 Y35.96 E12.05643
G1 X119.811 Y36.169 E12.0644
G1 X119.539 Y36.373 E12.07317
G1 X119.241 Y36.558 E12.08223
G1 X118.946 Y36.707 E12.09076
G1 F1227.6 X118.827 Y36.834 E12.09624
G1 F1050.3 X118.665 Y36.896 E12.10264
G1 F1243.5 X118.219 Y36.968 E12.1167
G1 F1500 X118.123 Y36.998 E12.1193
G1 X117.76 Y37.081 E12.12891
G1 X117.394 Y37.147 E12.13851
G1 X116.79 Y37.22 E12.15421
G1 X116.84 Y37.281 E12.15625
G1 X117.174 Y37.499 E12.16654
G1 X117.44 Y37.773 E12.1764
G1 X117.682 Y38.15 E12.18796
G1 X117.828 Y38.5 E12.19775
G1 X117.93 Y38.899 E12.20838
G1 X117.966 Y39.206 E12.21636
G1 X117.964 Y39.705 E12.22923
G1 X117.833 Y40.242 E12.2435
G1 X117.634 Y40.751 E12.25761
G1 X117.305 Y41.218 E12.27235
G1 X116.977 Y41.51 E12.28368
G1 F1472.4 X116.64 Y41.66 E12.29338
G1 F1311.5 X116.55 Y41.711 E12.29644
G1 F1025.6 X116.307 Y41.775 E12.30592
G0 F6000 X115.872 Y41.692
G1 F1006.3 X115.675 Y41.498 E12.31656
G1 F1348.3 X115.637 Y41.423 E12.31897
G1 F1500 X115.474 Y41.169 E12.32676
G1 X115.37 Y40.687 E12.33949
G1 X115.436 Y40.225 E12.35154
G1 X115.508 Y39.957 E12.3587
G1 X115.648 Y39.594 E12.36874
G1 X115.924 Y39.109 E12.38314
G1 X116.167 Y38.798 E12.39333
G1 X116.479 Y38.486 E12.40472
G1 X116.279 Y38.244 E12.41282
G1 X115.991 Y38.059 E12.42165
G1 X115.673 Y37.972 E12.43016
G1 X115.33 Y37.99 E12.43903
G1 X114.98 Y38.123 E12.44869
G1 X114.637 Y38.364 E12.45951
G1 X114.407 Y38.695 E12.46992
G1 X114.194 Y39.107 E12.48189
G1 X114.077 Y39.572 E12.49426
G1 X114.076 Y39.96 E12.50428
G1 X114.159 Y40.451 E12.51713
G1 X114.382 Y40.886 E12.52974
G1 X114.568 Y41.127 E12.5376
G1 X114.877 Y41.405 E12.54833
G1 X115.144 Y41.568 E12.5564
G1 F1481.5 X115.477 Y41.678 E12.56557
G1 F1078.7 X115.872 Y41.692 E12.57975
G0 F6000 X115.434 Y41.461
G0 X115.287 Y41.244
G0 X115.169 Y40.698
G0 X115.254 Y40.237
G0 X115.56 Y39.067
G0 X115.215 Y38.865
;TYPE:SKIN
G1 F691.6 X115.055 Y39.098 E12.59558
G1 F669.5 X114.917 Y39.376 E12.61352
G1 F683.8 X114.823 Y39.669 E12.63095
G1 F2700 E5.63095
G0 F6000 X115.2 Y39.816
G0 X115.487 Y39.51
G0 X116.433 Y39.961
G0 X117.031 Y39.883
G0 X118.707 Y40.084
G1 F2700 E12.63095
G1 F823.3 X118.646 Y39.798 E12.6447
G1 F981.6 X118.582 Y39.677 E12.6501
G1 F1156.6 X118.576 Y39.179 E12.66677
G1 F1159.4 X118.538 Y38.831 E12.67846
G1 X118.447 Y38.419 E12.69255
G1 X118.55 Y38.456 E12.6962
G1 X118.688 Y38.598 E12.70281
G1 X118.899 Y38.965 E12.71695
G1 X118.987 Y39.253 E12.727
G1 X119.014 Y39.7 E12.74196
G1 F941.2 X118.707 Y40.084 E12.76218
G1 F2700 E5.76218
G0 F6000 X119.128 Y40.249
G0 X119.305 Y38.806
G0 X120.292 Y36.84
G0 X120.753 Y36.118
G1 F2700 E12.76218
G1 F1043.5 X121.073 Y35.688 E12.78207
G1 X121.3 Y35.26 E12.80004
G1 F1012.7 X121.549 Y34.664 E12.82474
G1 F967.7 X121.655 Y34.361 E12.83758
G1 F933.9 X121.745 Y33.96 E12.85461
G1 F912.5 X121.776 Y33.532 E12.87282
G1 F923.1 X121.737 Y33.07 E12.89227
G1 F939.3 X121.61 Y32.543 E12.91461
G1 F941.2 X121.33 Y31.92 E12.9427
G1 X121.587 Y32.062 E12.95478
G1 X121.822 Y32.248 E12.96711
G1 X122.04 Y32.513 E12.98123
G1 X122.199 Y32.821 E12.99548
G1 F926.6 X122.271 Y33.106 E13.00776
G1 F904 X122.309 Y33.406 E13.02072
G1 F898.9 X122.3 Y33.745 E13.03532
G1 F917.8 X122.252 Y34.141 E13.05215
G1 F946.7 X122.104 Y34.605 E13.07206
G1 F969.7 X122.001 Y34.843 E13.08242
G1 F1012.7 X121.837 Y35.144 E13.09552
G1 F1043.5 X121.632 Y35.391 E13.10743
G1 X121.418 Y35.615 E13.11893
G1 X121.213 Y35.798 E13.12912
G1 X120.927 Y36.015 E13.14244
G1 X120.753 Y36.118 E13.14994
G1 F2700 E6.14994
;MESH:NONMESH
G0 F300 X120.753 Y36.118 Z0.4
G0 F6000 X120.9 Y36.372
G0 X120.217 Y36.63
G0 X119.838 Y36.712
G0 X119.638 Y36.523
G0 X91.62 Y34.497
G0 X89.435 Y36.625
;TIME_ELAPSED:49.423368
;LAYER:1
M106 S85
;TYPE:WALL-INNER
;MESH:name_inverted.stl
G1 F2700 E13.14994
G1 F1500 X89.638 Y36.609 E13.1552
G1 X90.128 Y36.632 E13.16786
G1 X90.546 Y36.75 E13.17907
G1 X91.45 Y34.634 E13.23846
G1 X91.767 Y33.933 E13.25832
G1 X92.123 Y33.204 E13.27925
G1 X92.348 Y32.789 E13.29144
G1 X92.683 Y32.224 E13.30839
G1 X92.411 Y32.022 E13.31714
G1 X92.312 Y31.629 E13.3276
G1 X92.215 Y31.44 E13.33308
G1 X91.964 Y31.296 E13.34055
G1 X91.753 Y31.25 E13.34612
G1 X91.405 Y31.293 E13.35517
G1 X91.008 Y31.426 E13.36598
G1 X91.121 Y31.542 E13.37016
G1 X91.198 Y31.711 E13.37495
G1 X91.195 Y32.38 E13.39222
G1 X91.051 Y32.858 E13.4051
G1 X90.929 Y33.189 E13.41421
G1 X89.435 Y36.625 E13.51091
G1 F2700 E6.51091
G0 F7500 X90.68 Y36.697
G0 X91.614 Y37.331
G0 X91.968 Y37.247
G1 F2700 E13.51091
G1 F1500 X92.192 Y37.237 E13.5167
G1 X92.491 Y37.166 E13.52463
G1 X92.738 Y37.075 E13.53142
G1 X92.995 Y36.945 E13.53886
G1 X93.22 Y36.802 E13.54574
G1 X93.548 Y36.548 E13.55645
G1 X93.876 Y36.226 E13.56831
G1 X94.131 Y35.933 E13.57833
G1 X94.429 Y35.551 E13.59084
G1 X94.74 Y35.069 E13.60564
G1 X94.928 Y34.737 E13.61549
G1 X95.076 Y34.438 E13.6241
G1 X95.204 Y34.146 E13.63233
G1 X95.378 Y33.677 E13.64524
G1 X95.672 Y33.188 E13.65997
G1 X95.886 Y32.864 E13.66999
G1 X95.641 Y32.713 E13.67742
G1 X95.538 Y32.515 E13.68318
G1 X95.5 Y32.143 E13.69283
G1 X95.405 Y31.849 E13.7008
G1 X95.224 Y31.544 E13.70996
G1 X94.924 Y31.326 E13.71953
G1 X94.727 Y31.269 E13.72482
G1 X94.368 Y31.298 E13.73412
G1 X94.264 Y31.343 E13.73704
G1 X94.396 Y31.398 E13.74073
G1 X94.604 Y31.727 E13.75078
G1 X94.663 Y32.073 E13.75984
G1 X94.645 Y32.557 E13.77234
G1 X94.596 Y32.884 E13.78087
G1 X94.475 Y33.302 E13.7921
G1 X94.366 Y33.614 E13.80063
G1 X94.093 Y34.258 E13.81869
G1 X93.734 Y34.974 E13.83936
G1 X93.516 Y35.364 E13.85089
G1 X93.216 Y35.852 E13.86568
G1 X92.878 Y36.33 E13.88079
G1 X92.603 Y36.666 E13.89199
G1 X92.353 Y36.93 E13.90138
G1 X91.968 Y37.247 E13.91425
G1 F2700 E6.91425
G0 F7500 X93.028 Y37.044
G0 X93.886 Y37.734
G0 X95.529 Y37.413
G0 X97.33 Y37.309
G1 F2700 E13.91425
G1 F1500 X97.851 Y37.149 E13.92832
G1 X97.759 Y37.101 E13.93099
G1 X97.651 Y36.932 E13.93617
G1 X97.561 Y36.669 E13.94335
G1 X97.558 Y36.453 E13.94892
G1 X97.734 Y35.886 E13.96424
G1 X98.013 Y35.224 E13.98279
G1 X98.984 Y33.2 E14.04072
G1 X99.173 Y32.77 E14.05285
G1 X99.28 Y32.397 E14.06286
G1 X99.311 Y32.025 E14.0725
G1 X99.28 Y31.809 E14.07813
G1 X99.117 Y31.501 E14.08712
G1 X98.86 Y31.331 E14.09508
G1 X98.588 Y31.267 E14.10229
G1 X98.223 Y31.316 E14.11179
G1 X97.943 Y31.437 E14.11967
G1 X98.14 Y31.62 E14.12661
G1 X98.237 Y31.77 E14.13122
G1 X98.273 Y31.968 E14.13641
G1 X98.224 Y32.336 E14.14599
G1 X98.099 Y32.709 E14.15615
G1 X97.887 Y33.191 E14.16974
G1 X96.92 Y35.141 E14.22591
G1 X96.71 Y35.628 E14.2396
G1 X96.585 Y35.957 E14.24869
G1 X96.517 Y36.288 E14.25741
G1 X96.512 Y36.731 E14.26884
G1 X96.614 Y37.045 E14.27736
G1 X96.734 Y37.204 E14.2825
G1 X96.962 Y37.293 E14.28882
G1 X97.33 Y37.309 E14.29833
G1 F2700 E7.29833
G0 F7500 X98.116 Y37.138
G0 X99.728 Y37.039
G0 X100.83 Y37.246
G1 F2700 E14.29833
G1 F1500 X101.027 Y37.178 E14.30371
G1 X100.891 Y37.013 E14.30923
G1 X100.841 Y36.474 E14.3232
G1 X100.951 Y36.037 E14.33483
G1 X101.034 Y35.788 E14.3416
G1 X101.307 Y35.123 E14.36016
G1 X101.828 Y33.963 E14.39298
G1 X102.925 Y31.276 E14.46789
G1 X101.789 Y31.276 E14.49721
G1 X100.441 Y34.502 E14.58744
G1 X100.087 Y35.204 E14.60774
G1 X99.73 Y35.873 E14.62731
G1 X99.466 Y36.309 E14.64046
G1 X99.648 Y36.523 E14.64771
G1 X99.817 Y36.982 E14.66034
G1 X100.002 Y37.168 E14.66711
G1 X100.167 Y37.249 E14.67185
G1 X100.568 Y37.291 E14.68226
G1 X100.83 Y37.246 E14.68912
G1 F2700 E7.68912
G0 F7500 X101.354 Y37.152
G0 X102.686 Y37.19
G0 X102.447 Y37.113
G1 F2700 E14.68912
G1 F1500 X103.102 Y37.005 E14.70625
G1 X103.443 Y36.964 E14.71512
G1 X103.952 Y36.93 E14.72829
G1 X105.274 Y33.706 E14.81822
G1 X105.674 Y33.047 E14.83812
G1 X105.881 Y32.743 E14.84761
G1 X106.186 Y32.338 E14.8607
G1 X106.408 Y32.078 E14.86952
G1 X106.644 Y31.837 E14.87822
G1 X106.354 Y31.596 E14.88796
G1 X106.333 Y31.275 E14.89626
G1 X105.14 Y31.275 E14.92705
G1 X104.303 Y33.313 E14.98391
G1 X103.943 Y34.101 E15.00627
G1 X103.528 Y34.95 E15.03067
G1 X103.139 Y35.667 E15.05172
G1 X102.877 Y36.108 E15.06496
G1 X102.659 Y36.435 E15.0751
G1 X102.28 Y36.92 E15.09099
G1 X102.432 Y37.04 E15.09599
G1 X102.447 Y37.113 E15.09791
G1 F2700 E8.09791
G0 F7500 X102.751 Y37.144
G0 X103.433 Y37.066
G0 X103.867 Y38.084
G0 X104.663 Y38.194
G0 X105.43 Y37.402
G0 X107.245 Y37.31
G1 F2700 E15.09791
G1 F1500 X107.757 Y37.151 E15.11175
G1 X107.51 Y36.882 E15.12117
G1 X107.466 Y36.429 E15.13292
G1 X107.672 Y35.813 E15.14968
G1 X107.815 Y35.467 E15.15935
G1 X108.212 Y34.608 E15.18377
G1 X108.764 Y33.48 E15.21618
G1 X109.083 Y32.775 E15.23616
G1 X109.192 Y32.395 E15.24636
G1 X109.217 Y32.096 E15.2541
G1 X109.201 Y31.835 E15.26085
G1 X109.124 Y31.617 E15.26682
G1 X109.031 Y31.503 E15.27062
G1 X108.716 Y31.298 E15.28032
G1 X108.286 Y31.292 E15.29142
G1 X108.045 Y31.343 E15.29777
G1 X107.837 Y31.45 E15.30381
G1 X108.005 Y31.525 E15.30856
G1 X108.128 Y31.692 E15.31391
G1 X108.179 Y32.068 E15.32371
G1 X108.114 Y32.412 E15.33274
G1 X108.008 Y32.714 E15.341
G1 X107.748 Y33.295 E15.35743
G1 X106.989 Y34.803 E15.401
G1 X106.624 Y35.616 E15.42401
G1 X106.472 Y36.019 E15.43512
G1 X106.419 Y36.397 E15.44497
G1 X106.438 Y36.782 E15.45492
G1 X106.562 Y37.125 E15.46434
G1 X106.845 Y37.298 E15.4729
G1 X107.245 Y37.31 E15.48323
G1 F2700 E8.48323
G0 F7500 X107.246 Y37.31
G0 X107.942 Y37.172
G0 X109.64 Y37.041
G0 X110.735 Y37.246
G1 F2700 E15.48323
G1 F1500 X110.997 Y37.16 E15.49034
G1 X110.809 Y36.96 E15.49743
G1 X110.734 Y36.503 E15.50938
G1 X110.892 Y35.939 E15.5245
G1 X110.988 Y35.672 E15.53182
G1 X111.169 Y35.229 E15.54417
G1 X111.743 Y33.95 E15.58035
G1 X112.835 Y31.275 E15.65493
G1 X111.699 Y31.275 E15.68425
G1 X110.353 Y34.499 E15.77442
G1 X109.996 Y35.206 E15.79486
G1 X109.622 Y35.902 E15.81525
G1 X109.364 Y36.327 E15.82809
G1 X109.553 Y36.511 E15.83489
G1 X109.728 Y36.988 E15.84801
G1 X110.025 Y37.237 E15.85801
G1 X110.369 Y37.313 E15.8671
G1 X110.735 Y37.246 E15.87671
G1 F2700 E8.87671
G0 F7500 X111.27 Y37.15
G0 X112.595 Y37.193
G0 X112.371 Y37.127
G1 F2700 E15.87671
G1 F1500 X112.769 Y37.043 E15.88721
G1 X113.373 Y36.962 E15.90293
G1 X113.855 Y36.948 E15.91538
G1 X116.182 Y31.275 E16.07364
G1 X115.05 Y31.275 E16.10285
G1 X114.214 Y33.313 E16.15971
G1 X113.852 Y34.101 E16.18209
G1 X113.429 Y34.964 E16.2069
G1 X113.232 Y35.338 E16.21781
G1 X112.878 Y35.959 E16.23626
G1 X112.665 Y36.296 E16.24655
G1 X112.334 Y36.742 E16.26088
G1 X112.184 Y36.894 E16.26639
G1 X112.353 Y37.036 E16.27209
G1 X112.371 Y37.127 E16.27448
G0 F7500 X112.203 Y37.449
;TYPE:WALL-OUTER
G1 F1500 X112.808 Y37.32 E16.29045
G1 X113.364 Y37.243 E16.30494
G1 X113.84 Y37.227 E16.31723
G1 X114.033 Y37.251 E16.32225
G1 X116.599 Y30.995 E16.49677
G1 X114.863 Y30.995 E16.54158
G1 X113.959 Y33.196 E16.60299
G1 X113.6 Y33.978 E16.6252
G1 X113.181 Y34.834 E16.64979
G1 X112.992 Y35.194 E16.66029
G1 X112.63 Y35.829 E16.67915
G1 X112.42 Y36.158 E16.68923
G1 X112.118 Y36.564 E16.70229
G1 X111.802 Y36.881 E16.71384
G1 X111.718 Y36.931 E16.71636
G1 X111.756 Y37.041 E16.71937
G1 X111.899 Y37.021 E16.72309
G1 X112.161 Y37.241 E16.73192
G1 X112.203 Y37.449 E16.7374
G0 F7500 X111.416 Y37.264
G1 F1108.5 X111.682 Y37.009 E16.75027
G1 F1069 X111.44 Y37.041 E16.75911
G1 F1391.3 X111.151 Y36.928 E16.76774
G1 F1500 X111.088 Y36.859 E16.77016
G1 X111.019 Y36.52 E16.77908
G1 X111.156 Y36.033 E16.79214
G1 X111.258 Y35.752 E16.79986
G1 X111.425 Y35.342 E16.81128
G1 X111.976 Y34.097 E16.84642
G1 X111.987 Y34.094 E16.84672
G1 X113.252 Y30.995 E16.93311
G1 X111.513 Y30.995 E16.97799
G1 X110.09 Y34.395 E17.07312
G1 X109.749 Y35.073 E17.09271
G1 X109.388 Y35.747 E17.11244
G1 F1463.4 X109.091 Y36.245 E17.12778
G1 F1173.6 X108.938 Y36.523 E17.13825
G1 F1153.8 X109.167 Y36.494 E17.146
G1 F1432.8 X109.294 Y36.617 E17.15077
G1 F1500 X109.483 Y37.133 E17.16496
G1 X109.642 Y37.316 E17.17121
G1 X109.912 Y37.499 E17.17963
G1 X110.236 Y37.57 E17.18819
G1 X110.507 Y37.572 E17.19519
G1 X110.804 Y37.519 E17.20297
G1 X111.103 Y37.419 E17.21111
G1 F1459 X111.416 Y37.264 E17.22038
G1 F2700 E10.22038
G0 F7500 X111.19 Y37.155
G0 X110.074 Y37.123
G0 X109.635 Y36.873
G0 X108.938 Y36.523
G1 F2700 E17.22038
G1 F1023.5 X108.695 Y36.785 E17.2339
G1 F1012.7 X108.478 Y36.963 E17.24463
G0 F7500 X108.179 Y37.248
G1 F1322.3 X108.451 Y36.989 E17.25562
G1 X108.102 Y37.004 E17.26585
G1 F1500 X107.954 Y36.954 E17.26988
G1 X107.779 Y36.778 E17.27629
G1 X107.751 Y36.46 E17.28453
G1 X107.931 Y35.92 E17.29922
G1 X108.07 Y35.585 E17.30858
G1 X108.464 Y34.731 E17.33286
G1 X109.019 Y33.596 E17.36546
G1 X109.347 Y32.871 E17.386
G1 X109.469 Y32.446 E17.39741
G1 X109.497 Y32.099 E17.4064
G1 X109.479 Y31.779 E17.41467
G1 X109.372 Y31.477 E17.42294
G1 X109.22 Y31.293 E17.4291
G1 X108.876 Y31.067 E17.43972
G1 X108.703 Y31.017 E17.44437
G1 X108.258 Y31.012 E17.45586
G1 X107.95 Y31.077 E17.46398
G1 F1273.2 X107.477 Y31.324 E17.48021
G1 F977.6 X107.173 Y31.675 E17.4986
G1 F960 X107.335 Y31.632 E17.50536
G1 F1243.5 X107.681 Y31.668 E17.51619
G1 F1500 X107.808 Y31.725 E17.51978
G1 X107.899 Y32.046 E17.52839
G1 X107.844 Y32.335 E17.53598
G1 X107.759 Y32.582 E17.54273
G1 X107.497 Y33.169 E17.55932
G1 X106.736 Y34.683 E17.60305
G1 X106.364 Y35.511 E17.62648
G1 X106.253 Y35.804 E17.63457
G1 X106.181 Y36.068 E17.64163
G1 X106.138 Y36.386 E17.64991
G1 X106.165 Y36.925 E17.66384
G1 X106.333 Y37.3 E17.67445
G1 X106.556 Y37.483 E17.68189
G1 X106.786 Y37.576 E17.68829
G1 X107.155 Y37.588 E17.69782
G1 X107.445 Y37.541 E17.70541
G1 X107.752 Y37.446 E17.7137
G1 X108.179 Y37.248 E17.72585
G1 F2700 E10.72585
G0 F7500 X107.863 Y37.16
G0 X106.967 Y37.174
G0 X106.382 Y36.976
G0 X105.371 Y37.228
G0 X104.663 Y38.194
G0 X101.71 Y38.462
G0 X101.517 Y38.217
G0 X101.241 Y37.012
G1 F2700 E17.72585
G1 F1500 X101.164 Y36.918 E17.72898
G1 X101.123 Y36.486 E17.74018
G1 X101.217 Y36.125 E17.74981
G1 X101.305 Y35.863 E17.75695
G1 X101.563 Y35.238 E17.7744
G1 X102.083 Y34.082 E17.80711
G1 X103.342 Y30.996 E17.89314
G1 X101.602 Y30.996 E17.93805
G1 X100.185 Y34.387 E18.0329
G1 X99.839 Y35.072 E18.05271
G1 X99.469 Y35.763 E18.07294
G1 X99.224 Y36.17 E18.0852
G1 X98.968 Y36.533 E18.09666
G1 X99.039 Y36.594 E18.09908
G1 X99.306 Y36.539 E18.10612
G1 X99.391 Y36.634 E18.10941
G1 X99.575 Y37.137 E18.12323
G1 X99.837 Y37.398 E18.13277
G1 X100.074 Y37.515 E18.1396
G1 X100.327 Y37.57 E18.14628
G1 X100.591 Y37.571 E18.15309
G1 X100.899 Y37.518 E18.16116
G1 X101.194 Y37.418 E18.1692
G1 X101.618 Y37.208 E18.18141
G1 X101.838 Y37.047 E18.18845
G1 X101.974 Y37.038 E18.19196
G1 X102.243 Y37.247 E18.20076
G1 X102.286 Y37.451 E18.20614
G1 X102.737 Y37.349 E18.21807
G1 X103.136 Y37.283 E18.22851
G1 X103.462 Y37.244 E18.23698
G1 X103.877 Y37.216 E18.24772
G1 X104.124 Y37.248 E18.25415
G1 X105.53 Y33.82 E18.34978
G1 X105.906 Y33.204 E18.3684
G1 X106.105 Y32.911 E18.37754
G1 X106.399 Y32.52 E18.39017
G1 X106.609 Y32.274 E18.39852
G1 X106.87 Y32.006 E18.40817
G1 F1116.3 X107.108 Y31.723 E18.421
G1 F1103.4 X106.861 Y31.652 E18.43002
G1 F1467.9 X106.596 Y31.448 E18.43884
G1 F1490.7 X106.584 Y31.253 E18.44391
G1 F1500 X106.69 Y30.995 E18.45111
G1 X104.953 Y30.995 E18.49594
G1 X104.048 Y33.196 E18.55736
G1 X103.691 Y33.977 E18.57953
G1 X103.272 Y34.834 E18.60415
G1 X102.903 Y35.517 E18.62418
G1 X102.638 Y35.962 E18.63755
G1 X102.426 Y36.279 E18.64739
G1 X102.204 Y36.568 E18.6568
G1 X101.853 Y36.92 E18.66963
G1 X101.414 Y37.043 E18.6814
G1 X101.241 Y37.012 E18.68593
G1 F2700 E11.68593
G0 F7500 X101.177 Y37.186
G0 X100.306 Y37.14
G0 X99.704 Y36.916
G0 X99.004 Y36.567
G1 F2700 E18.68593
G1 F1002.1 X98.683 Y36.89 E18.70353
G0 F7500 X97.958 Y36.903
G1 F1500 X97.816 Y36.561 E18.71308
G1 X97.985 Y36.013 E18.72789
G1 X98.275 Y35.324 E18.74718
G1 X99.236 Y33.325 E18.80443
G1 X99.438 Y32.865 E18.81739
G1 X99.557 Y32.447 E18.82861
G1 X99.592 Y32.017 E18.83974
G1 X99.552 Y31.733 E18.84715
G1 X99.427 Y31.438 E18.85542
G1 X99.307 Y31.291 E18.86031
G1 X98.973 Y31.069 E18.87066
G1 X98.602 Y30.983 E18.88049
G1 X98.147 Y31.044 E18.89234
G1 X97.787 Y31.199 E18.90246
G1 F1445.8 X97.528 Y31.38 E18.91092
G1 F1293.8 X97.293 Y31.643 E18.92147
G1 X97.63 Y31.618 E18.93159
G1 F1445.8 X97.772 Y31.655 E18.93552
G1 F1500 X98.001 Y31.9 E18.94417
G1 X97.954 Y32.259 E18.95352
G1 X97.842 Y32.597 E18.96271
G1 X97.637 Y33.067 E18.97594
G1 X96.671 Y35.012 E19.03199
G1 X96.454 Y35.511 E19.04603
G1 X96.315 Y35.879 E19.05619
G1 X96.237 Y36.258 E19.06617
G1 X96.234 Y36.593 E19.07482
G1 X96.264 Y36.874 E19.08212
G1 X96.36 Y37.174 E19.09025
G1 X96.551 Y37.434 E19.09857
G1 X96.904 Y37.57 E19.10834
G1 X97.247 Y37.586 E19.1172
G1 X97.534 Y37.541 E19.1247
G1 X97.842 Y37.446 E19.13301
G1 F1355.9 X98.32 Y37.224 E19.14806
G1 F1134.8 X98.683 Y36.89 E19.16489
G1 F1188.1 X98.393 Y36.992 E19.17491
G1 F1432.8 X98.061 Y36.959 E19.18392
G1 F1500 X97.958 Y36.903 E19.18695
G1 F2700 E12.18695
G0 F7500 X97.697 Y36.994
G0 X97.226 Y37.184
G0 X96.805 Y37.1
G0 X96.633 Y36.713
G0 X96.701 Y35.991
G0 X97.031 Y35.189
G0 X97.701 Y33.884
G0 X97.703 Y33.29
G0 X96.372 Y32.628
G1 F2700 E19.18695
G1 F1019.1 X96.78 Y32.132 E19.21135
G1 F958.1 X97.083 Y31.815 E19.22907
G1 F897.2 X97.294 Y31.655 E19.24049
G1 F2700 E12.24049
G0 F7500 X97.775 Y31.455
G0 X95.598 Y32.121
G0 X93.601 Y31.534
G1 F2700 E19.24049
G1 F1010.5 X93.286 Y31.864 E19.25797
G1 F1093.4 X93.185 Y31.993 E19.26377
G1 F2700 E12.26377
G0 F7500 X92.447 Y31.815
G0 X90.136 Y31.76
G1 F2700 E19.26377
G1 F1016.9 X89.899 Y31.966 E19.27573
G1 F1093.4 X89.694 Y32.185 E19.28635
G1 F1132.1 X89.449 Y32.487 E19.29965
G1 F1162.2 X89.284 Y32.72 E19.30916
G1 F1206 X89.03 Y33.113 E19.32418
G1 F1191.1 X88.655 Y33.767 E19.34868
G1 F2700 E12.34868
G0 F7500 X90.263 Y34.467
G0 X90.808 Y37.191
G1 F2700 E19.34868
G1 F1407.6 X90.741 Y37.099 E19.35181
G1 F1441.4 X90.747 Y36.998 E19.35453
G1 F1490.7 X91.705 Y34.749 E19.41802
G1 F1500 X92.019 Y34.056 E19.43766
G1 X92.37 Y33.337 E19.45831
G1 X92.584 Y32.939 E19.46997
G1 X92.949 Y32.325 E19.48841
G1 F1269.8 X93.185 Y31.993 E19.50082
G1 F1206 X92.987 Y32.029 E19.50729
G1 F1411.8 X92.777 Y31.972 E19.51325
G1 F1500 X92.637 Y31.868 E19.51775
G1 X92.581 Y31.539 E19.52637
G1 X92.461 Y31.305 E19.53315
G1 X92.355 Y31.197 E19.53706
G1 X92.066 Y31.032 E19.54565
G1 X91.766 Y30.965 E19.55358
G1 X91.353 Y31.017 E19.56433
G1 X91.099 Y31.083 E19.5711
G1 X90.86 Y31.184 E19.5778
G1 X90.623 Y31.32 E19.58485
G1 F1476.9 X90.392 Y31.487 E19.59232
G1 F1293.8 X90.149 Y31.746 E19.60295
G1 X90.493 Y31.666 E19.61352
G1 F1476.9 X90.713 Y31.602 E19.61952
G1 F1500 X90.83 Y31.636 E19.62267
G1 X90.918 Y31.801 E19.62749
G1 X90.918 Y32.339 E19.64138
G1 X90.792 Y32.752 E19.65252
G1 X90.672 Y33.077 E19.66147
G1 X88.973 Y36.985 E19.77145
G1 X89.351 Y36.913 E19.78138
G1 X89.659 Y36.889 E19.78936
G1 X90.078 Y36.909 E19.80018
G1 X90.429 Y37.004 E19.80957
G1 F1454.5 X90.808 Y37.191 E19.82082
G0 F7500 X91.006 Y37.32
G1 F1441.4 X91.34 Y37.436 E19.83031
G1 F1500 X91.622 Y37.503 E19.83779
G1 X91.882 Y37.53 E19.84454
G1 X92.224 Y37.517 E19.85337
G1 X92.572 Y37.435 E19.8626
G1 X92.84 Y37.337 E19.86997
G1 X93.123 Y37.195 E19.87814
G1 X93.381 Y37.031 E19.88603
G1 X93.732 Y36.76 E19.89747
G1 X94.07 Y36.429 E19.90968
G1 X94.34 Y36.121 E19.92026
G1 X94.657 Y35.713 E19.93359
G1 X94.983 Y35.208 E19.9491
G1 X95.17 Y34.881 E19.95883
G1 X95.326 Y34.567 E19.96788
G1 X95.459 Y34.266 E19.97637
G1 X95.624 Y33.812 E19.98884
G1 X95.906 Y33.342 E20.00298
G1 F1237.1 X96.372 Y32.628 E20.02967
G1 F1090.9 X96.293 Y32.662 E20.03272
G1 F1290.3 X95.955 Y32.593 E20.04307
G1 F1500 X95.853 Y32.529 E20.04618
G1 X95.81 Y32.447 E20.04857
G1 X95.776 Y32.087 E20.0579
G1 X95.666 Y31.744 E20.0672
G1 X95.439 Y31.362 E20.07867
G1 X95.295 Y31.221 E20.08387
G1 X95.036 Y31.067 E20.09164
G1 X94.755 Y30.986 E20.09919
G1 X94.301 Y31.022 E20.11095
G1 X93.989 Y31.154 E20.11969
G1 F1420.1 X93.808 Y31.283 E20.12575
G1 F1218.3 X93.584 Y31.537 E20.13651
G1 F1162.2 X93.798 Y31.503 E20.14373
G1 F1276.6 X94.158 Y31.571 E20.15484
G1 F1420.1 X94.337 Y31.825 E20.16331
G1 F1500 X94.384 Y32.112 E20.17082
G1 X94.368 Y32.515 E20.18123
G1 X94.32 Y32.835 E20.18958
G1 X94.218 Y33.187 E20.19904
G1 X94.113 Y33.493 E20.20739
G1 X93.842 Y34.133 E20.22533
G1 X93.489 Y34.838 E20.24567
G1 X93.278 Y35.217 E20.25687
G1 X92.978 Y35.705 E20.27166
G1 X92.641 Y36.178 E20.28665
G1 X92.4 Y36.473 E20.29648
G1 X92.159 Y36.728 E20.30553
G1 X91.817 Y37.014 E20.31704
G1 X91.403 Y37.262 E20.32949
G1 F1450.2 X90.893 Y37.262 E20.34311
G1 F1395.3 X91.006 Y37.32 E20.34663
G0 F7500 X90.574 Y36.817
G0 X89.653 Y36.47
G0 X89.693 Y36.185
G0 X89.937 Y36.291
;TYPE:SKIN
G1 F1310.7 X91.252 Y33.279 E20.45585
G1 F1267.6 X91.383 Y32.947 E20.46811
G1 F1134.5 X91.582 Y32.389 E20.49085
G1 F1036.5 X91.58 Y31.664 E20.52132
G1 F1024.7 X91.737 Y31.643 E20.52805
G1 X91.936 Y31.724 E20.53719
G1 X92.065 Y32.203 E20.55827
G1 F1086.5 X92.162 Y32.3 E20.56377
G1 F1230.1 X91.47 Y33.792 E20.622
G1 F1326.8 X91.152 Y34.503 E20.64757
G1 F1330 X90.356 Y36.354 E20.71355
G1 F1323.5 X89.937 Y36.291 E20.7275
G1 F2700 E13.7275
G0 F7500 X89.693 Y36.185
G0 X89.653 Y36.47
G0 X90.473 Y36.589
G0 X92.213 Y33.253
G0 X94.494 Y32.883
G0 X95.027 Y31.925
G1 F2700 E20.7275
G1 F969.5 X95.084 Y32.23 E20.74144
G1 F868.2 X95.088 Y32.561 E20.75804
G1 F711.5 X95.149 Y32.971 E20.78342
G0 F7500 X94.936 Y33.464
G1 F740.7 X94.751 Y33.96 E20.81454
G1 F749 X94.549 Y34.419 E20.84371
G1 F769.2 X94.34 Y34.82 E20.86931
G1 F809.6 X94.067 Y35.29 E20.89855
G1 F886.7 X93.816 Y35.666 E20.92076
G1 F987.2 X93.6 Y35.958 E20.93678
G1 F2700 E13.93678
G0 F7500 X93.326 Y35.788
G0 X92.483 Y37.009
G0 X92.929 Y36.843
G0 X93.469 Y36.457
G0 X94.172 Y35.659
G0 X95.757 Y33.245
G0 X98.014 Y32.65
G0 X98.785 Y31.958
G1 F2700 E20.93678
G1 F687.9 X98.788 Y32.041 E20.94204
G1 F683.5 X98.749 Y32.402 E20.96518
G1 F698.6 X98.573 Y32.882 E20.99705
G1 F718.1 X98.344 Y33.388 E21.03074
G1 F716.2 X97.569 Y34.976 E21.1382
G1 F692.3 X97.237 Y35.723 E21.18963
G0 F7500 X96.814 Y35.54
G0 X96.638 Y36.301
G0 X96.633 Y36.713
G0 X96.773 Y37.026
G0 X97.029 Y36.969
G1 F1340 X96.936 Y36.933 E21.19287
G1 X96.836 Y36.679 E21.20174
G1 F1343.3 X96.842 Y36.326 E21.21319
G1 F1326.8 X96.912 Y36.028 E21.22324
G1 F894 X97.237 Y35.723 E21.24495
G1 X97.302 Y36.162 E21.26657
G1 F1326.8 X97.24 Y36.385 E21.27417
G1 F1343.3 X97.244 Y36.748 E21.28594
G1 F1340 X97.315 Y36.957 E21.29311
G1 X97.029 Y36.969 E21.30242
G1 F2700 E14.30242
G0 F7500 X96.932 Y37.216
G0 X98.116 Y37.138
G0 X99.728 Y37.039
G0 X100.282 Y36.881
G1 F2700 E21.30242
G1 F1052.6 X100.147 Y36.774 E21.30954
G1 X100 Y36.375 E21.32714
G1 F1082.2 X99.943 Y36.295 E21.33109
G1 F1146.5 X100.197 Y35.748 E21.354
G1 F1264.6 X100.739 Y34.628 E21.39685
G1 F1336.6 X101.147 Y33.67 E21.43078
G1 F1326.8 X102.006 Y31.602 E21.50429
G1 F1340 X102.44 Y31.602 E21.5184
G1 F1326.8 X101.526 Y33.827 E21.59736
G1 F1282.7 X100.715 Y35.667 E21.66564
G1 F1216.2 X100.614 Y35.926 E21.6756
G1 F1113.4 X100.457 Y36.439 E21.69658
G1 F1052.6 X100.498 Y36.903 E21.71586
G1 X100.282 Y36.881 E21.72484
G1 F2700 E14.72484
G0 F7500 X100.14 Y37.168
G0 X101.354 Y37.152
G0 X102.686 Y37.19
G0 X102.989 Y36.635
G1 F2700 E21.72484
G1 F1036.5 X103.194 Y36.326 E21.74042
G1 F1065.1 X103.461 Y35.852 E21.76267
G1 F1148.9 X103.841 Y35.105 E21.79444
G1 F1252.9 X104.244 Y34.244 E21.82749
G1 F1232.9 X104.952 Y32.668 E21.88852
G1 F1108.8 X105.426 Y31.682 E21.9315
G1 F1001.9 X105.974 Y31.683 E21.95532
G1 F954.1 X106.066 Y31.852 E21.9641
G1 X105.892 Y32.051 E21.97617
G1 F1011.2 X105.558 Y32.55 E22.00203
G1 F1120.3 X105.368 Y32.864 E22.0163
G1 F1252.9 X104.985 Y33.558 E22.04386
G1 F1276.6 X104.252 Y35.279 E22.10768
G1 F1118 X103.686 Y36.561 E22.16227
G1 F1036.5 X103.424 Y36.581 E22.17331
G1 X102.989 Y36.635 E22.19173
G1 F2700 E15.19173
G0 F7500 X103.045 Y36.954
G0 X104.006 Y37.039
G0 X103.876 Y38.086
G0 X104.663 Y38.194
G0 X105.296 Y36.849
G0 X108.677 Y31.88
G1 F2700 E22.19173
G1 F691.4 X108.705 Y31.991 E22.19894
G1 F677.5 X108.673 Y32.293 E22.21846
G1 F682.7 X108.613 Y32.55 E22.2353
G1 F705 X108.468 Y32.918 E22.25974
G1 F720 X108.189 Y33.525 E22.30015
G1 F721 X107.761 Y34.391 E22.35851
G1 F703.1 X107.328 Y35.295 E22.4206
G1 F687 X107.177 Y35.652 E22.44517
G1 F671.6 X106.989 Y36.171 E22.48097
G1 F668.3 X106.942 Y36.436 E22.4985
G1 F674.2 X106.962 Y36.689 E22.5149
G1 F2700 E15.5149
G0 F7500 X107.427 Y36.643
G0 X107.942 Y37.172
G0 X109.64 Y37.041
G0 X110.178 Y36.877
G1 F2700 E22.5149
G1 F1058.8 X110.055 Y36.775 E22.52147
G1 X109.905 Y36.37 E22.53924
G1 F1122.7 X109.849 Y36.29 E22.54303
G1 F1273.6 X110.648 Y34.633 E22.60594
G1 F1340 X111.075 Y33.628 E22.64143
G1 F1330 X111.916 Y31.6 E22.71332
G1 F1340 X112.35 Y31.6 E22.72743
G1 F1330 X111.448 Y33.798 E22.80523
G1 F1307.5 X110.727 Y35.417 E22.86427
G1 F1250 X110.56 Y35.831 E22.87982
G1 F1127.3 X110.343 Y36.479 E22.90622
G1 F1058.8 X110.415 Y36.903 E22.92392
G1 X110.178 Y36.877 E22.93372
G1 F2700 E15.93372
G0 F7500 X110.141 Y37.193
G0 X111.27 Y37.15
G0 X112.595 Y37.193
G0 X112.901 Y36.637
G1 F2700 E22.93372
G1 F1038.5 X113.189 Y36.192 E22.95595
G1 F1090.9 X113.548 Y35.511 E22.98669
G1 F1173.9 X113.741 Y35.122 E23.0028
G1 F1247.1 X114.15 Y34.251 E23.03641
G1 F1323.5 X114.511 Y33.442 E23.06556
G1 F1353.4 X115.269 Y31.598 E23.12972
G1 X115.699 Y31.598 E23.14356
G1 X114.883 Y33.585 E23.21269
G1 F1241.4 X113.977 Y35.703 E23.29351
G1 F1090.9 X113.595 Y36.569 E23.3313
G1 F1038.5 X113.271 Y36.586 E23.34491
G1 X112.901 Y36.637 E23.36057
G1 F2700 E16.36057
G0 F7500 X112.944 Y36.958
G0 X113.362 Y37.065
G0 X114.623 Y38.689
G0 X115.21 Y41.275
;TYPE:WALL-INNER
G1 F2700 E23.36057
G1 F1500 X115.085 Y40.698 E23.37581
G1 X115.166 Y40.152 E23.39005
G1 X115.254 Y39.835 E23.39855
G1 X115.395 Y39.474 E23.40855
G1 X115.651 Y39.027 E23.42184
G1 X115.949 Y38.611 E23.43505
G1 X116.101 Y38.464 E23.44051
G1 X115.876 Y38.318 E23.44743
G1 X115.641 Y38.254 E23.45372
G1 X115.317 Y38.271 E23.46209
G1 X114.964 Y38.468 E23.47253
G1 X114.709 Y38.742 E23.48219
G1 X114.579 Y38.96 E23.48874
G1 X114.43 Y39.293 E23.49815
G1 X114.357 Y39.644 E23.50741
G1 X114.357 Y39.937 E23.51497
G1 X114.428 Y40.361 E23.52606
G1 X114.62 Y40.736 E23.53694
G1 X114.774 Y40.936 E23.54345
G1 X115.093 Y41.22 E23.55448
G1 X115.21 Y41.275 E23.55781
G1 F2700 E16.55781
G0 F7500 X115.498 Y41.512
G0 X117.074 Y41.664
G0 X117.345 Y41.555
G1 F2700 E23.55781
G1 F1500 X117.728 Y41.481 E23.56788
G1 X118.149 Y41.335 E23.57938
G1 X118.51 Y41.119 E23.59024
G1 X118.725 Y40.937 E23.59751
G1 X119.01 Y40.596 E23.60898
G1 X119.148 Y40.363 E23.61597
G1 X119.25 Y40.102 E23.6232
G1 X119.322 Y39.802 E23.63116
G1 X119.343 Y39.547 E23.63777
G1 X119.317 Y39.193 E23.64693
G1 X119.209 Y38.841 E23.65643
G1 X119.096 Y38.603 E23.66323
G1 X118.948 Y38.389 E23.66995
G1 X118.739 Y38.172 E23.67772
G1 F1280 X118.446 Y38.01 E23.68785
G1 F1076.2 X118.324 Y37.698 E23.6999
G1 F1006.3 X118.384 Y37.366 E23.71288
G1 F973.6 X118.428 Y37.301 E23.716
G1 X117.689 Y37.477 E23.74621
G1 X117.878 Y37.77 E23.76007
G1 F1039 X118.069 Y38.212 E23.77802
G1 F1280 X118.142 Y38.587 E23.78957
G1 F1500 X118.202 Y38.829 E23.79601
G1 X118.245 Y39.176 E23.80503
G1 X118.248 Y39.557 E23.81486
G1 X118.213 Y39.875 E23.82312
G1 X118.142 Y40.21 E23.83196
G1 X117.878 Y40.89 E23.85079
G1 X117.568 Y41.34 E23.86489
G1 X117.345 Y41.555 E23.87289
G1 F2700 E16.87289
G0 F7500 X117.814 Y40.839
G0 X118.137 Y39.842
G0 X118.196 Y37.974
G0 X118.685 Y38.042
G0 X118.916 Y37.073
G0 X119.124 Y36.961
G1 F2700 E23.87289
G1 F1490.7 X119.413 Y36.947 E23.8804
G1 F1500 X119.712 Y36.896 E23.88823
G1 X119.984 Y36.831 E23.89545
G1 X120.263 Y36.742 E23.90301
G1 X120.529 Y36.635 E23.91041
G1 X120.779 Y36.513 E23.91759
G1 X121.043 Y36.359 E23.92547
G1 X121.29 Y36.188 E23.93323
G1 X121.554 Y35.972 E23.94203
G1 X121.809 Y35.733 E23.95105
G1 X122.127 Y35.352 E23.96386
G1 X122.33 Y35.012 E23.97408
G1 X122.452 Y34.75 E23.98154
G1 X122.573 Y34.404 E23.991
G1 X122.647 Y34.101 E23.99905
G1 X122.69 Y33.78 E24.00741
G1 X122.702 Y33.389 E24.01751
G1 X122.649 Y33.019 E24.02715
G1 X122.552 Y32.676 E24.03635
G1 X122.361 Y32.304 E24.04715
G1 X122.093 Y31.977 E24.05806
G1 X121.809 Y31.752 E24.06741
G1 X121.551 Y31.597 E24.07518
G1 X121.234 Y31.456 E24.08413
G1 X120.884 Y31.348 E24.09359
G1 X120.473 Y31.279 E24.10434
G1 X120.189 Y31.254 E24.1117
G1 F1490.7 X119.74 Y31.278 E24.12338
G1 X120.154 Y31.407 E24.13464
G1 F1500 X120.6 Y31.708 E24.14853
G1 X121.038 Y32.176 E24.16507
G1 X121.286 Y32.774 E24.18178
G1 X121.397 Y33.349 E24.1969
G1 X121.36 Y33.918 E24.21161
G1 X121.287 Y34.277 E24.22107
G1 X121.135 Y34.745 E24.23377
G1 X120.991 Y35.08 E24.24318
G1 X120.816 Y35.411 E24.25284
G1 X120.587 Y35.754 E24.26349
G1 X120.35 Y36.038 E24.27303
G1 X120.097 Y36.289 E24.28223
G1 X119.857 Y36.49 E24.29031
G1 X119.53 Y36.714 E24.30054
G1 F1490.7 X119.124 Y36.961 E24.31288
G1 F2700 E17.31288
G0 F7500 X118.597 Y37.022
G0 X118.282 Y36.043
G0 X117.183 Y33.126
G0 X116.682 Y32.366
;TYPE:WALL-OUTER
G1 F2700 E24.31288
G1 F935.7 X116.991 Y32.112 E24.32944
G1 F851.1 X117.328 Y31.895 E24.34767
G1 F785.6 X117.695 Y31.701 E24.36813
G1 F2700 E17.36813
G0 F7500 X117.968 Y32.645
G0 X116.142 Y36.054
G0 X115.654 Y37.113
G0 X115.832 Y41.676
G1 F2700 E24.36813
G1 F864.9 X116.255 Y41.773 E24.38755
G1 F898.9 X116.318 Y41.774 E24.39027
G1 F1098.4 X116.679 Y41.873 E24.40346
G1 F1459 X117.119 Y41.862 E24.41514
G1 F1500 X117.439 Y41.825 E24.42345
G1 X117.802 Y41.752 E24.43301
G1 X118.14 Y41.635 E24.44224
G1 X118.382 Y41.521 E24.44915
G1 X118.674 Y41.347 E24.45792
G1 X118.918 Y41.14 E24.46618
G1 X119.094 Y40.952 E24.47282
G1 X119.244 Y40.751 E24.4793
G1 X119.401 Y40.486 E24.48725
G1 X119.518 Y40.186 E24.49556
G1 X119.599 Y39.846 E24.50458
G1 X119.624 Y39.548 E24.5123
G1 X119.594 Y39.141 E24.52283
G1 X119.47 Y38.74 E24.53366
G1 X119.34 Y38.463 E24.54156
G1 X119.165 Y38.211 E24.54948
G1 X118.9 Y37.936 E24.55934
G1 X118.781 Y37.882 E24.56271
G1 F1428.6 X118.685 Y37.749 E24.56716
G1 F1297.3 X118.779 Y37.249 E24.58234
G1 F1132.1 X118.916 Y37.2 E24.58731
G1 F1215.2 X119.18 Y37.245 E24.59585
G1 F1481.5 X119.445 Y37.225 E24.60279
G1 F1500 X119.777 Y37.169 E24.61148
G1 X120.068 Y37.099 E24.61921
G1 X120.349 Y37.01 E24.62681
G1 X120.634 Y36.896 E24.63474
G1 X120.931 Y36.749 E24.64329
G1 X121.194 Y36.595 E24.65115
G1 X121.449 Y36.419 E24.65915
G1 X121.728 Y36.193 E24.66842
G1 X122.014 Y35.925 E24.67853
G1 X122.356 Y35.514 E24.69233
G1 X122.578 Y35.144 E24.70347
G1 X122.712 Y34.856 E24.71167
G1 X122.842 Y34.484 E24.72184
G1 X122.923 Y34.153 E24.73064
G1 X122.97 Y33.803 E24.73975
G1 X122.983 Y33.373 E24.75085
G1 X122.923 Y32.961 E24.7616
G1 X122.814 Y32.573 E24.772
G1 X122.596 Y32.15 E24.78428
G1 X122.29 Y31.777 E24.79674
G1 X121.968 Y31.521 E24.80735
G1 X121.68 Y31.348 E24.81602
G1 X121.333 Y31.194 E24.82582
G1 X120.95 Y31.075 E24.83617
G1 X120.497 Y30.999 E24.84803
G1 X120.202 Y30.974 E24.85567
G1 F1481.5 X119.823 Y30.983 E24.86558
G1 F1218.3 X119.455 Y31.072 E24.87761
G1 F1088.4 X118.931 Y31.127 E24.89635
G1 F1206 X118.396 Y31.281 E24.91422
G1 F1116.3 X118.013 Y31.424 E24.9284
G1 F857.1 X117.695 Y31.701 E24.94745
G1 F985.6 X118.131 Y31.657 E24.96466
G1 F1340.8 X118.539 Y31.544 E24.97689
G1 F1203 X118.989 Y31.465 E24.99159
G1 F1088.4 X119.449 Y31.451 E25.00796
G1 F1218.3 X119.773 Y31.59 E25.01916
G1 F1481.5 X120.05 Y31.671 E25.0267
G1 F1500 X120.435 Y31.942 E25.03886
G1 X120.795 Y32.331 E25.05254
G1 X121.02 Y32.874 E25.06771
G1 X121.114 Y33.386 E25.08114
G1 X121.081 Y33.891 E25.0942
G1 X121.026 Y34.17 E25.10154
G1 X120.877 Y34.635 E25.11414
G1 X120.734 Y34.97 E25.12355
G1 X120.559 Y35.297 E25.13312
G1 X120.384 Y35.56 E25.14127
G1 X120.151 Y35.841 E25.15069
G1 X119.918 Y36.074 E25.1592
G1 X119.665 Y36.284 E25.16768
G1 X119.391 Y36.47 E25.17623
G1 F1481.5 X119.04 Y36.673 E25.18683
G1 F1215.2 X118.827 Y36.834 E25.19533
G1 F1048 X118.647 Y36.903 E25.20246
G1 F1240.3 X118.219 Y36.971 E25.21598
G1 F1500 X117.817 Y37.07 E25.22667
G1 X117.392 Y37.147 E25.23782
G1 X117.059 Y37.193 E25.24649
G1 X116.788 Y37.218 E25.25352
G1 X116.84 Y37.282 E25.25564
G1 X117.057 Y37.41 E25.26215
G1 X117.395 Y37.695 E25.27356
G1 X117.671 Y38.132 E25.2869
G1 F1504.7 X117.83 Y38.499 E25.29719
G1 X117.93 Y38.896 E25.30772
G1 F1500 X117.966 Y39.207 E25.3158
G1 X117.969 Y39.523 E25.32396
G1 X117.939 Y39.817 E25.33159
G1 X117.863 Y40.165 E25.34078
G1 X117.634 Y40.751 E25.35702
G1 X117.307 Y41.216 E25.37169
G1 X116.982 Y41.506 E25.38293
G1 F1407.6 X116.626 Y41.677 E25.39379
G1 F1069 X116.318 Y41.774 E25.40549
G0 F7500 X115.813 Y41.682
G1 F1290.3 X115.485 Y41.223 E25.42242
G1 F1424.3 X115.37 Y40.687 E25.43732
G1 F1500 X115.436 Y40.225 E25.44936
G1 X115.515 Y39.936 E25.45709
G1 X115.65 Y39.589 E25.4667
G1 X115.868 Y39.207 E25.47806
G1 X116.172 Y38.781 E25.49156
G1 X116.484 Y38.498 E25.50244
G1 X116.278 Y38.244 E25.51088
G1 X115.991 Y38.059 E25.51969
G1 X115.672 Y37.972 E25.52822
G1 X115.322 Y37.989 E25.53727
G1 X115.163 Y38.037 E25.54155
G1 X114.719 Y38.284 E25.55467
G1 X114.478 Y38.582 E25.56456
G1 X114.33 Y38.831 E25.57204
G1 X114.161 Y39.207 E25.58268
G1 X114.077 Y39.615 E25.59343
G1 X114.077 Y39.96 E25.60233
G1 X114.159 Y40.451 E25.61518
G1 X114.382 Y40.886 E25.6278
G1 X114.568 Y41.128 E25.63567
G1 X114.937 Y41.457 E25.64843
G1 F1424.3 X115.373 Y41.659 E25.66149
G1 F1290.3 X115.813 Y41.682 E25.67471
G0 F7500 X115.428 Y41.473
G0 X114.723 Y40.672
G0 X114.545 Y40.322
G0 X114.491 Y39.783
G0 X114.672 Y38.903
G0 X115.059 Y39.078
;TYPE:SKIN
G1 F753.1 X114.891 Y39.44 E25.69779
G1 F780.3 X114.816 Y39.691 E25.71241
G1 F2700 E18.71241
G0 F7500 X114.426 Y39.61
G0 X114.751 Y38.874
G0 X115.033 Y38.568
G0 X115.323 Y38.407
G0 X115.628 Y38.376
G0 X116.049 Y38.645
G0 X117.822 Y38.032
G0 X118.738 Y39.035
G1 F2700 E25.71241
G1 F678.4 X118.783 Y39.29 E25.72904
G1 F644.4 X118.796 Y39.605 E25.75035
G1 F650.6 X118.739 Y39.948 E25.77362
G1 F687 X118.654 Y40.237 E25.79272
G1 F2700 E18.79272
G0 F7500 X118.993 Y40.524
G0 X119.229 Y39.663
G0 X119.032 Y38.33
G0 X119.443 Y37.045
G0 X121.436 Y35.361
G1 F2700 E25.79272
G1 F862.6 X121.441 Y34.924 E25.81479
G1 F1144.1 X121.554 Y34.649 E25.82611
G1 F1088.7 X121.655 Y34.361 E25.83832
G1 F1050.6 X121.745 Y33.96 E25.85535
G1 F1034.5 X121.789 Y33.348 E25.88119
G1 F1046.5 X121.655 Y32.677 E25.90966
G1 F1056.8 X121.343 Y31.925 E25.94322
G1 X121.585 Y32.06 E25.95464
G1 X121.821 Y32.247 E25.96705
G1 X122.04 Y32.513 E25.98125
G1 X122.199 Y32.821 E25.99554
G1 F1046.5 X122.273 Y33.106 E26.00779
G1 F1030.5 X122.313 Y33.406 E26.02058
G1 F1018.9 X122.3 Y33.745 E26.03509
G1 F1032.5 X122.252 Y34.141 E26.05191
G1 F1088.7 X122.068 Y34.719 E26.07618
G1 F1156.3 X121.824 Y35.161 E26.0952
G1 F862.6 X121.436 Y35.361 E26.11723
;TIME_ELAPSED:92.154496
G1 F2700 E19.11723
M140 S0
M107
G91 ;Relative positioning
G1 E-2 F2700 ;Retract a bit
G1 E-2 Z0.2 F2400 ;Retract and raise Z
G1 X5 Y5 F3000 ;Wipe out
G1 Z10 ;Raise Z more
G90 ;Absolute positioning

G1 X0 Y220 ;Present print
M106 S0 ;Turn-off fan
M104 S0 ;Turn-off hotend
M140 S0 ;Turn-off bed

M84 X Y E ;Disable all steppers but Z

M82 ;absolute extrusion mode
M104 S0
;End of Gcode
;SETTING_3 {"global_quality": "[general]\\nversion = 4\\nname = LlaveroFlork\\nd
;SETTING_3 efinition = creality_ender3\\n\\n[metadata]\\ntype = quality_changes\
;SETTING_3 \nquality_type = standard\\nsetting_version = 22\\n\\n[values]\\nadhe
;SETTING_3 sion_type = none\\n\\n", "extruder_quality": ["[general]\\nversion = 
;SETTING_3 4\\nname = LlaveroFlork\\ndefinition = creality_ender3\\n\\n[metadata
;SETTING_3 ]\\ntype = quality_changes\\nquality_type = standard\\nintent_categor
;SETTING_3 y = default\\nposition = 0\\nsetting_version = 22\\n\\n[values]\\nbot
;SETTING_3 tom_layers = 3\\nfill_outline_gaps = False\\ninfill_sparse_density = 
;SETTING_3 15\\nmaterial_flow = 97\\nmaterial_print_temperature = 180\\nretracti
;SETTING_3 on_amount = 7\\ntop_layers = 3\\nwall_line_count = 2\\nwall_line_widt
;SETTING_3 h = 0.32\\n\\n"]}
